代码,AFTN,KIND,NAME,latitude_deg,LONGTI,ELE,continent,iso_country,iso_region,municipality,scheduled_service,gps_code,iata_code,local_code,home_link,wikipedia_link,keywords
6523,00A,heliport,Total Rf Heliport,40.07080078,-74.93360138,11,NA,US,US-PA,Bensalem,no,00A,,00A,,,
323361,00AA,small_airport,Aero B Ranch Airport,38.704022,-101.473911,3435,NA,US,US-KS,Leoti,no,00AA,,00AA,,,
6524,00AK,small_airport,Lowell Field,59.94919968,-151.6959991,450,NA,US,US-AK,Anchor Point,no,00AK,,00AK,,,
6525,00AL,small_airport,Epps Airpark,34.8647995,-86.77030182,820,NA,US,US-AL,Harvest,no,00AL,,00AL,,,
6526,00AR,closed,Newport Hospital & Clinic Heliport,35.6087,-91.254898,237,NA,US,US-AR,Newport,no,,,,,,00AR
322127,00AS,small_airport,Fulton Airport,34.9428028,-97.8180194,1100,NA,US,US-OK,Alex,no,00AS,,00AS,,,
6527,00AZ,small_airport,Cordes Airport,34.30559921,-112.1650009,3810,NA,US,US-AZ,Cordes,no,00AZ,,00AZ,,,
6528,00CA,small_airport,Goldstone /Gts/ Airport,35.3504982,-116.8880005,3038,NA,US,US-CA,Barstow,no,00CA,,00CA,,,
324424,00CL,small_airport,Williams Ag Airport,39.427188,-121.763427,87,NA,US,US-CA,Biggs,no,00CL,,00CL,,,
6529,00CO,closed,Cass Field,40.622202,-104.344002,4830,NA,US,US-CO,Briggsdale,no,,,,,,00CO
6531,00FA,small_airport,Grass Patch Airport,28.64550018,-82.21900177,53,NA,US,US-FL,Bushnell,no,00FA,,00FA,,,
6533,00FL,small_airport,River Oak Airport,27.23089981,-80.96920013,35,NA,US,US-FL,Okeechobee,no,00FL,,00FL,,,
6534,00GA,small_airport,Lt World Airport,33.76750183,-84.06829834,700,NA,US,US-GA,Lithonia,no,00GA,,00GA,,,
6537,00ID,small_airport,Delta Shores Airport,48.14530182,-116.2139969,2064,NA,US,US-ID,Clark Fork,no,00ID,,00ID,,,
322581,00IG,small_airport,Goltl Airport,39.724028,-101.395994,3359,NA,US,US-KS,McDonald,no,00IG,,00IG,,,
6538,00II,heliport,Bailey Generation Station Heliport,41.64450073,-87.12280273,600,NA,US,US-IN,Chesterton,no,00II,,00II,,,
6539,00IL,small_airport,Hammer Airport,41.97840118,-89.56040192,840,NA,US,US-IL,Polo,no,00IL,,00IL,,,
6540,00IN,heliport,St Mary Medical Center Heliport,41.51139832,-87.26059723,634,NA,US,US-IN,Hobart,no,00IN,,00IN,,,
6541,00IS,small_airport,Hayenga's Cant Find Farms Airport,40.02560043,-89.12290192,820,NA,US,US-IL,Kings,no,00IS,,00IS,,,
6542,00KS,small_airport,Hayden Farm Airport,38.72779846,-94.93049622,1100,NA,US,US-KS,Gardner,no,00KS,,00KS,,,
6543,00KY,small_airport,Robbins Roost Airport,37.40940094,-84.61969757,1265,NA,US,US-KY,Stanford,no,00KY,,00KY,,,
45437,00LA,heliport,Shell Chemical East Site Heliport,30.191944,-90.980833,15,NA,US,US-LA,Gonzales,no,00LA,,00LA,,,
6544,00LL,heliport,Ac & R Components Heliport,39.66529846,-89.70559692,600,NA,US,US-IL,Chatham,no,00LL,,00LL,,,
6545,00LS,small_airport,Lejeune Airport,30.13629913,-92.42939758,12,NA,US,US-LA,Esterwood,no,00LS,,00LS,,,
6546,00MD,small_airport,Slater Field,38.75709915,-75.75379944,45,NA,US,US-MD,Federalsburg,no,00MD,,00MD,,,
6547,00MI,heliport,Dow Chemical Heliport,43.94940186,-86.41670227,588,NA,US,US-MI,Ludington,no,00MI,,00MI,,,
6548,00MN,small_airport,Battle Lake Municipal Airport,46.29999924,-95.70030212,1365,NA,US,US-MN,Battle Lake,no,00MN,,00MN,,,
6549,00MO,small_airport,Cooper Flying Service Airport,37.20280075,-94.41239929,970,NA,US,US-MO,Alba,no,00MO,,00MO,,,5K8
6550,00MT,closed,Sands Ranch Airport,48.537498,-109.705002,2600,NA,US,US-MT,Havre,no,,,,,,00MT
6551,00N,small_airport,Bucks Airport,39.47320175,-75.18520355,105,NA,US,US-NJ,Bridgeton,no,00N,,00N,,,
6552,00NC,small_airport,North Raleigh Airport,36.08520126,-78.37139893,348,NA,US,US-NC,Louisburg,no,00NC,,00NC,,,
6553,00NJ,heliport,Colgate-Piscataway Heliport,40.52090073,-74.47460175,78,NA,US,US-NJ,New Brunswick,no,00NJ,,00NJ,,,
6554,00NY,small_airport,Weiss Airfield,42.90010071,-77.49970245,1000,NA,US,US-NY,West Bloomfield,no,00NY,,00NY,,,
6555,00OH,small_airport,Exit 3 Airport,41.59090042,-84.14219666,785,NA,US,US-OH,Wauseon,no,00OH,,00OH,,,
6556,00OI,heliport,Miami Valley Hospital Heliport,39.74530029,-84.18740082,905,NA,US,US-OH,Dayton,no,00OI,,00OI,,,
328503,00OK,small_airport,Gull Bay Landing Airport,36.198598,-96.217693,960,NA,US,US-OK,Sandsprings,no,00OK,,00OK,,,
6557,00OR,heliport,Steel Systems Heliport,44.93289948,-123.1299973,195,NA,US,US-OR,Salem,no,00OR,,00OR,,,
6558,00PA,heliport,R J D Heliport,39.94889832,-75.74690247,402,NA,US,US-PA,Coatesville,no,00PA,,00PA,,,
45773,00PN,small_airport,Ferrell Field,41.2995,-80.211111,1301,NA,US,US-PA,Mercer,no,00PN,,00PN,,,
6559,00PS,closed,Thomas Field,40.3778,-77.365303,815,NA,US,US-PA,Loysville,no,,,,,,00PS
6560,00S,small_airport,Mc Kenzie Bridge State Airport,44.18320084,-122.0889969,1620,NA,US,US-OR,Mc Kenzie Bridge,no,00S,,00S,,http://en.wikipedia.org/wiki/McKenzie_Bridge_State_Airport,
6561,00SC,small_airport,Flying O Airport,34.00939941,-80.26719666,150,NA,US,US-SC,Sumter,no,00SC,,00SC,,,
330391,00SD,small_airport,Homan Field,44.809158,-96.498897,1590,NA,US,US-SD,Gary,no,00SD,,00SD,,,
6562,00TA,heliport,Sw Region Faa Heliport,32.82690048,-97.30580139,598,NA,US,US-TX,Fort Worth,no,00TA,,00TA,,,
6563,00TE,heliport,Tcjc-Northeast Campus Heliport,32.84759903,-97.1894989,600,NA,US,US-TX,Fort Worth,no,00TE,,00TE,,,
6564,00TN,small_airport,Ragsdale Road Airport,35.51589966,-85.95359802,1100,NA,US,US-TN,Manchester,no,00TN,,00TN,,,
6565,00TS,small_airport,Alpine Range Airport,32.60760117,-97.24199677,670,NA,US,US-TX,Everman,no,00TS,,00TS,,,
6566,00TX,closed,San Jacinto Methodist Hospital Heliport,29.7377,-94.980201,19,NA,US,US-TX,Baytown,no,,,,,,00TX
6567,00UT,closed,Clear Creek Ranch Airport,37.247799,-112.821998,6138,NA,US,US-UT,Kanab,no,,,,,,"00UT, U21"
6568,00VA,small_airport,Vaughan Airport,36.57600021,-78.9991684,551,NA,US,US-VA,Alton,no,00VA,,00VA,,,
6569,00VI,small_airport,Groundhog Mountain Airport,36.66329956,-80.49949646,2680,NA,US,US-VA,Hillsville,no,00VI,,00VI,,,
6570,00W,small_airport,Lower Granite State Airport,46.67350006,-117.4430008,719,NA,US,US-WA,Colfax,no,00W,,00W,http://www.wsdot.wa.gov/aviation/AllStateAirports/Colfax_LowerGraniteState.htm,,0WA0
6571,00WA,small_airport,Howell Airport,47.17839813,-122.7720032,150,NA,US,US-WA,Longbranch,no,00WA,,00WA,,,
6572,00WI,small_airport,Northern Lite Airport,44.3042984,-89.05010223,860,NA,US,US-WI,Waupaca,no,00WI,,00WI,,,
6573,00WN,small_airport,Hawks Run Airport,46.25,-117.2490005,2900,NA,US,US-WA,Asotin,no,00WN,,00WN,,,
6574,00WV,small_airport,Lazy J. Aerodrome,38.82889938,-79.8660965,2060,NA,US,US-WV,Beverly,no,00WV,,00WV,,,
322300,00WY,heliport,Mountain View Regional Hospital Heliport,42.840361,-106.224443,5210,NA,US,US-WY,Casper,no,00WY,,00WY,,,
6575,00XS,small_airport,L P Askew Farms Airport,33.03340149,-101.9339981,3110,NA,US,US-TX,O'Donnell,no,00XS,,00XS,,,
6576,01A,small_airport,Purkeypile Airport,62.9435997,-152.2700043,1950,NA,US,US-AK,Purkeypile,no,01A,,01A,,,
6577,01AK,heliport,Providence Seward Medical Center Heliport,60.10587398,-149.446249,120,NA,US,US-AK,Seward,no,01AK,,01AK,,,
6578,01AL,small_airport,Ware Island Airport,32.94599915,-86.51390076,344,NA,US,US-AL,Clanton,no,01AL,,01AL,,,
6579,01AR,heliport,Community Hospital of De Queen Heliport,34.04729843,-94.35489655,400,NA,US,US-AR,De Queen,no,01AR,,01AR,,,
6580,01AZ,heliport,Yat Heliport,34.60810089,-111.8649979,3300,NA,US,US-AZ,Camp Verde,no,01AZ,,01AZ,,,
6581,01C,closed,Grant Airport,43.34170151,-85.77500153,815,NA,US,US-MI,Grant,no,01C,,01C,,https://en.wikipedia.org/wiki/Grant_Airport,
6582,01CA,heliport,Lugo Substation Heliport,34.36824059,-117.3700587,3733,NA,US,US-CA,Hesperia,no,01CA,,01CA,,,
6583,01CL,small_airport,Swansboro Country Airport,38.79990005,-120.7340012,2594,NA,US,US-CA,Placerville,no,01CL,,01CL,,,
6584,01CN,heliport,Los Angeles County Sheriff's Department Heliport,34.03779984,-118.1539993,300,NA,US,US-CA,Los Angeles,no,01CN,,01CN,,,
6585,01CO,heliport,St Vincent General Hospital Heliport,39.24530029,-106.2460022,10175,NA,US,US-CO,Leadville,no,01CO,,01CO,,,
6586,01CT,heliport,Berlin Fairgrounds Heliport,41.62730026,-72.72750092,60,NA,US,US-CT,Berlin,no,01CT,,01CT,,,
6587,01FA,small_airport,Rybolt Ranch Airport,28.58939934,-81.14420319,55,NA,US,US-FL,Orlando,no,01FA,,01FA,,,
6588,01FD,heliport,Advent Health Altamonte Springs Heliport,28.666639,-81.3697,86,NA,US,US-FL,Altamonte Springs,no,01FD,,01FD,,,Florida Hospital-Altamonte
6589,01FL,small_airport,Cedar Knoll Flying Ranch Airport,28.78190041,-81.15920258,19,NA,US,US-FL,Geneva,no,01FL,,01FL,,,
6590,01GA,heliport,Medical Center Heliport,32.47930145,-84.97910309,319,NA,US,US-GA,Columbus,no,01GA,,01GA,,,
6591,01GE,small_airport,The Farm Airport,32.67440033,-82.77110291,375,NA,US,US-GA,Wrightsville,no,01GE,,01GE,,,
6592,01IA,small_airport,Stender Airport,41.66109848,-90.74130249,725,NA,US,US-IA,Maysville,no,01IA,,01IA,,,
6530,01ID,small_airport,Lava Hot Springs Airport,42.6082,-112.031998,5268,NA,US,US-ID,Lava Hot Springs,no,01ID,,01ID,,,"Formerly 00E, ID26"
6593,01II,small_airport,Myers Field,39.88499832,-86.50669861,950,NA,US,US-IN,Lizton,no,01II,,01II,,,
6594,01IL,heliport,Hoopeston Community Memorial Hospital Heliport,40.45859909,-87.65950012,583,NA,US,US-IL,Hoopeston,no,01IL,,01IL,,,
6595,01IN,heliport,Community Hospital Heliport,40.13090134,-85.69580078,890,NA,US,US-IN,Anderson,no,01IN,,01IN,,,
6596,01IS,small_airport,William E. Koenig Airport,39.01620102,-90.31819916,670,NA,US,US-IL,Dow,no,01IS,,01IS,,,
6597,01J,small_airport,Hilliard Airpark,30.68630028,-81.90570068,59,NA,US,US-FL,Hilliard,no,01J,,01J,,,
6598,01K,small_airport,Caldwell Municipal Airport,37.03609848,-97.58640289,1157,NA,US,US-KS,Caldwell,no,01K,,01K,,,
6599,01KS,small_airport,Flying N Ranch Airport,38.54059982,-97.00330353,1485,NA,US,US-KS,Lost Springs,no,01KS,,01KS,,,
6600,01KY,heliport,Lourdes Hospital Heliport,37.05170059,-88.64689636,419,NA,US,US-KY,Paducah,no,01KY,,01KY,,,
6601,01LA,small_airport,Barham Airport,32.63899994,-91.7736969,90,NA,US,US-LA,Oak Ridge,no,01LA,,01LA,,,
6602,01LL,small_airport,Schumaier Restricted Landing Area,38.12580109,-89.46389771,555,NA,US,US-IL,Pinckneyville,no,01LL,,01LL,,,
6603,01LS,small_airport,Country Breeze Airport,30.70599937,-91.07740021,125,NA,US,US-LA,Slaughter,no,01LS,,01LS,,,
6604,01MA,heliport,Compaq Andover Heliport,42.62509918,-71.18009949,140,NA,US,US-MA,Andover,no,01MA,,01MA,,,
6607,01MI,heliport,Flow Through Terminal Heliport,43.04949951,-83.67970276,736,NA,US,US-MI,Flint,no,01MI,,01MI,,,
6609,01MO,heliport,Highway Patrol Troop C Headquarters Heliport,38.64170074,-90.48429871,615,NA,US,US-MO,Town and Country,no,01MO,,01MO,,,
6610,01MT,small_airport,Crystal Lakes Resort Airport,48.78910065,-114.8799973,3141,NA,US,US-MT,Fortine,no,01MT,,01MT,,,
6611,01NC,small_airport,Topsail Airpark,34.47529984,-77.58139801,65,NA,US,US-NC,Holly Ridge,no,01NC,,01NC,,,
6612,01NE,small_airport,Detour Airport,40.84360123,-100.6529999,3000,NA,US,US-NE,Wellfleet,no,01NE,,01NE,,,
6613,01NH,small_airport,Moore Airfield,43.6445,-72.086998,835,NA,US,US-NH,Canaan,no,01NH,,01NH,,,Enfield
6614,01NJ,heliport,Albert Guido Memorial Heliport,40.7417984,-74.13710022,10,NA,US,US-NJ,Newark,no,01NJ,,01NJ,,,
45537,01NM,small_airport,Champion Ranch Airport,33.008611,-104.540278,3630,NA,US,US-NM,Artesia,no,01NM,,01NM,,,
6615,01NV,small_airport,Lantana Ranch Airport,38.76390076,-119.0270004,4600,NA,US,US-NV,Yerington,no,01NV,,01NV,,,
6616,01NY,heliport,Vassar Hospital Heliport,41.70009995,-73.94960022,100,NA,US,US-NY,Poughkeepsie,no,01NY,,01NY,,,
6617,01OI,heliport,Galion Community Hospital Heliport,40.73059845,-82.8015976,1140,NA,US,US-OH,Galion,no,01OI,,01OI,,,
6618,01OK,closed,Lawrence Airport,35.294498,-98.636496,1525,NA,US,US-OK,Eakly,no,,,,,,01OK
6619,01OR,closed,Red & White Flying Service Airport,43.119301,-121.044997,4346,NA,US,US-OR,Silver Lake,no,,,,,,01OR
6620,01PA,heliport,Pine Heliport,40.6556015,-80.05090332,1215,NA,US,US-PA,Mars,no,01PA,,01PA,,,
6621,01PN,small_airport,Bierly(Personal Use) Airport,40.93059921,-77.73889923,960,NA,US,US-PA,Bellefonte,no,01PN,,01PN,,,
6622,01PS,small_airport,Nort's Resort Airport,41.59590149,-76.02960205,1040,NA,US,US-PA,Meshoppen,no,01PS,,01PS,,,
6623,01SC,small_airport,York Airport,35.03210068,-81.25279999,779,NA,US,US-SC,York,no,01SC,,01SC,,,
6624,01TA,heliport,Thirty Thirty Matlock Office Center Heliport,32.69419861,-97.11579895,630,NA,US,US-TX,Arlington,no,01TA,,01TA,,,
6625,01TE,small_airport,Smith Field,32.73759842,-96.4280014,505,NA,US,US-TX,Forney,no,01TE,,01TE,,,
6626,01TN,small_airport,Colonial Air Park,34.9958992,-89.73059845,370,NA,US,US-TN,Collierville,no,01TN,,01TN,,,
6627,01TS,closed,St Joseph Hospital Heliport,32.7285,-97.324501,675,NA,US,US-TX,Fort Worth,no,,,,,,01TS
6628,01TX,small_airport,Mims Farm Ultralightport,32.38759995,-96.87750244,610,NA,US,US-TX,Waxahachie,no,01TX,,01TX,,,
6629,01U,small_airport,Duckwater Airport,38.85160065,-115.6340027,5124,NA,US,US-NV,Duckwater,no,01U,,01U,,,
6630,01UT,small_airport,La Sal Junction Airport,38.30830002,-109.3960037,6000,NA,US,US-UT,La Sal,no,01UT,,01UT,,,
6631,01VA,small_airport,Pickles Airport,39.125,-77.92500305,500,NA,US,US-VA,Berryville,no,01VA,,01VA,,,
6632,01WA,heliport,Willapa Harbor Heliport,46.66320038,-123.8119965,154,NA,US,US-WA,South Bend,no,01WA,,01WA,,,
6633,01WI,small_airport,Prehn Cranberry Company Airport,44.00999832,-90.3891983,930,NA,US,US-WI,Tomah,no,01WI,,01WI,,,
6634,01WN,heliport,Whidbey General Hospital Heliport,48.21340179,-122.6849976,103,NA,US,US-WA,Coupeville,no,01WN,,01WN,,,
45900,01WT,heliport,Odyssey Heliport,47.518178,-122.210908,20,NA,US,US-WA,Renton,no,01WT,,01WT,,,
6635,01WY,small_airport,Keyhole Airport,44.34719849,-104.810997,4250,NA,US,US-WY,Moorcroft,no,01WY,,01WY,,,
46288,01XA,heliport,Seton Medical Center Hays Heliport,30.007222,-97.853333,715,NA,US,US-TX,Kyle,no,01XA,,01XA,,,
6636,01XS,heliport,Meadowood Ranch Heliport,32.02019882,-95.74549866,500,NA,US,US-TX,Athens,no,01XS,,01XS,,,
6637,02AK,small_airport,Rustic Wilderness Airport,61.87689972,-150.0980072,190,NA,US,US-AK,Willow,no,02AK,,02AK,,,
6638,02AL,small_airport,Bass Field,30.37150002,-87.76439667,61,NA,US,US-AL,Foley,no,02AL,,02AL,,,
43030,02AR,closed,Three Rivers Airport,34.822445,-92.44442,264,NA,US,US-AR,Little Rock,no,,,,,,02AR
6640,02AZ,closed,Winchester Farm Airstrip,32.376401,-109.936996,4200,NA,US,US-AZ,Willcox,no,,,,,,02AZ
6641,02CA,heliport,Swepi Beta Platform Ellen Heliport,33.58250046,-118.1289978,122,NA,US,US-CA,Huntington Beach,no,02CA,,02CA,,,
6642,02CD,small_airport,Shannon Field,34.12960052,-90.52400208,165,NA,US,US-MS,Clarksdale,no,02CD,,02CD,,,
6643,02CL,small_airport,Conover Air Lodge Airport,34.761101,-119.058998,5160,NA,US,US-CA,Frazier Park,no,02CL,,02CL,,,04L
6644,02CO,small_airport,Mc Cullough Airport,37.6432991,-106.0469971,7615,NA,US,US-CO,Monte Vista,no,02CO,,02CO,,,
6645,02CT,heliport,Strangers Point Heliport,41.91960144,-72.44450378,540,NA,US,US-CT,Ellington,no,02CT,,02CT,,,
6646,02FA,small_airport,Osborn Airfield,28.52669907,-81.87480164,121,NA,US,US-FL,Groveland,no,02FA,,02FA,,,
45347,02FL,small_airport,Cuchens Airport,30.642778,-86.123889,215,NA,US,US-FL,Defuniak Springs,no,02FL,,02FL,,,
6648,02GA,small_airport,Doug Bolton Field,34.20259857,-83.42900085,884,NA,US,US-GA,Commerce,no,02GA,,02GA,,,
6649,02GE,small_airport,Etowah Fields Airport,34.1753006,-84.92440033,710,NA,US,US-GA,Euharlee,no,02GE,,02GE,,,
6650,02HI,heliport,K3 Helipad Heliport,21.36199951,-157.951004,9,NA,US,US-HI,Pearl Harbor,no,02HI,,02HI,,,
6651,02IA,heliport,Boone County Hospital Heliport,42.05609894,-93.87799835,1160,NA,US,US-IA,Boone,no,02IA,,02IA,,,
6652,02ID,small_airport,Morgan Ranch Airport,44.55550003,-115.3050003,5634,NA,US,US-ID,Cascade,no,02ID,,02ID,,,
6653,02II,small_airport,King Ultralightport,40.06230164,-86.21050262,925,NA,US,US-IN,Westfield,no,02II,,02II,,,
6654,02IN,small_airport,Diamond P. Field,40.20890045,-85.540802,904,NA,US,US-IN,Muncie,no,02IN,,02IN,,,
6655,02IS,heliport,Condell Medical Center Heliport,42.27460098,-87.95729828,762,NA,US,US-IL,Libertyville,no,02IS,,02IS,,,
6656,02KS,small_airport,Jmj Landing Airport,39.22219849,-96.05529785,1170,NA,US,US-KS,St Marys,no,02KS,,02KS,,,
327110,02KT,heliport,St Claire Healthcare Heliport,38.181441,-83.443319,781,NA,US,US-KY,Morehead,no,02KT,,02KT,,,
6657,02KY,heliport,Boone National Guard Heliport,38.1833992,-84.89990234,760,NA,US,US-KY,Frankfort,no,02KY,,02KY,,,
6658,02LA,heliport,La State Police Troop G Heliport,32.53129959,-93.66020203,168,NA,US,US-LA,Bossier City,no,02LA,,02LA,,,
6659,02LS,heliport,Windy Hill Heliport,30.14830017,-91.91899872,25,NA,US,US-LA,Broussard,no,02LS,,02LS,,,
6660,02MA,heliport,Cuttyhunk Heliport,41.41960144,-70.92700195,9,NA,US,US-MA,Gosnold,no,02MA,,02MA,,,
322099,02MD,small_airport,Garner Field,38.672544,-76.709739,141,NA,US,US-MD,Brandywine,no,02MD,,02MD,,,
6661,02ME,small_airport,Nadeau's Airport,43.5373,-70.929397,700,NA,US,US-ME,Acton,no,02ME,,02ME,,,Old Acton Airfield
6662,02MI,small_airport,Fairplains Airpark,43.15710068,-85.14849854,850,NA,US,US-MI,Greenville,no,02MI,,02MI,,,
6663,02MN,small_airport,Greenbush Municipal Airport,48.68330002,-96.19200134,1070,NA,US,US-MN,Greenbush,no,02MN,,02MN,,,
6664,02MO,small_airport,Troy Airpark,39.04999924,-91.03350067,650,NA,US,US-MO,Troy,no,02MO,,02MO,,,
6665,02MS,small_airport,Watts Field,34.10010147,-90.84680176,153,NA,US,US-MS,Rochdale,no,02MS,,02MS,,,
6666,02MT,closed,Barrett Field,47.2374,-111.74304,3350,NA,US,US-MT,Cascade,no,,,,,,02MT
6667,02MU,closed,Timber Line Airpark,36.654233,-93.797418,1550,NA,US,US-MO,Cassville,no,,,,,,02MU
45686,02NC,heliport,Race City Heliport,35.541111,-80.597778,809,NA,US,US-NC,Landis,no,02NC,,02NC,,,
6668,02NE,small_airport,Benes Service Airport,41.07450104,-96.90450287,1550,NA,US,US-NE,Valparaiso,no,02NE,,02NE,,,
6670,02NJ,heliport,Penske Heliport,40.55730057,-74.46710205,78,NA,US,US-NJ,Piscataway,no,02NJ,,02NJ,,,
6671,02NV,small_airport,Paiute Meadows Airport,41.30329895,-118.5979996,4443,NA,US,US-NV,Winnemucca,no,02NV,,02NV,,,
6672,02NY,heliport,Hansen Heliport,43.13259888,-75.65550232,435,NA,US,US-NY,Durhamville,no,02NY,,02NY,,,
6673,02OH,small_airport,Zimmerman Airport,41.37639999,-83.08329773,614,NA,US,US-OH,Fremont,no,02OH,,02OH,,,
6674,02OI,small_airport,Murtha Airport,41.80199814,-80.56539917,950,NA,US,US-OH,Conneaut,no,02OI,,02OI,,,
6675,02OK,closed,Canon Heliport,35.458401,-97.525297,1191,NA,US,US-OK,Oklahoma City,no,,,02OK,,,02OK
6676,02OR,small_airport,Rowena Dell Airport,45.68149948,-121.3160019,705,NA,US,US-OR,The Dalles,no,02OR,,02OR,,,
6677,02P,heliport,Stottle Memorial Heliport,40.403596,-77.556602,591,NA,US,US-PA,Honey Grove,no,,,02P,,,"EWT 4,"
6678,02PA,heliport,Lag Iii Heliport,40.43830109,-79.76999664,1070,NA,US,US-PA,Monroeville,no,02PA,,02PA,,,
6679,02PN,heliport,Peco Berwyn Heliport,40.06959915,-75.4552002,390,NA,US,US-PA,Berwyn,no,02PN,,02PN,,,
6680,02PR,small_airport,Cuylers Airport,18.45330048,-66.36689758,15,NA,PR,PR-U-A,Vega Baja,no,02PR,,02PR,,,
6681,02PS,small_airport,Hughes Ultralightport,41.90060043,-77.2303009,1700,NA,US,US-PA,Tioga,no,02PS,,02PS,,,
6682,02SC,small_airport,Harpers Airport,32.75849915,-81.22480011,111,NA,US,US-SC,Estill,no,02SC,,02SC,,,
6683,02T,small_airport,Wise River Airport,45.76910019,-112.9820023,5830,NA,US,US-MT,Wise River,no,02T,,02T,,,
6684,02TA,heliport,Matagorda Shore Facility Heliport,28.72139931,-95.87380219,5,NA,US,US-TX,Matagorda,no,02TA,,02TA,,,
6685,02TE,heliport,Baylor Medical Center Heliport,32.395401,-96.86419678,560,NA,US,US-TX,Waxahachie,no,02TE,,02TE,,,
6686,02TN,small_airport,Ellis Field,35.7806015,-86.584198,840,NA,US,US-TN,Murfreesboro,no,02TN,,02TN,,,
6687,02TS,closed,FWOMC Heliport,32.747601,-97.370003,684,NA,US,US-TX,Fort Worth,no,,,,,,02TS
6688,02TX,small_airport,The Palms At Kitty Hawk Airport,33.37040329,-101.9228821,3235,NA,US,US-TX,New Home,no,02TX,,02TX,,,
6689,02UT,small_airport,Lucin Airport,41.36629868,-113.8430023,4412,NA,US,US-UT,Lucin,no,02UT,,02UT,,,
6690,02VA,small_airport,The Greenhouse Airport,38.43569946,-77.85720062,320,NA,US,US-VA,Culpeper,no,02VA,,02VA,,,
6691,02VG,heliport,Northstar Aviation Heliport,36.63880157,-82.11669922,1850,NA,US,US-VA,Bristol,no,02VG,,02VG,,,
6692,02WA,small_airport,Cawleys South Prairie Airport,47.15230179,-122.0940018,690,NA,US,US-WA,South Prairie,no,02WA,,02WA,,,
6693,02WI,small_airport,Beer Airport,45.0318985,-92.65579987,920,NA,US,US-WI,Hudson,no,02WI,,02WI,,,
6694,02WN,small_airport,Fowler Field,48.74580002,-119.3190002,2150,NA,US,US-WA,Tonasket,no,02WN,,02WN,,,
330393,02XA,small_airport,JLS Farms Airport,33.591319,-95.882864,675,NA,US,US-TX,Honey Grove,no,02XA,,02XA,,,
6695,02XS,small_airport,Seidel Ranch Airport,30.14769936,-97.66280365,510,NA,US,US-TX,Elroy,no,02XS,,02XS,,,
325508,03AA,heliport,Trapper T Heliport,61.556055,-149.284527,159,NA,US,US-AK,Palmer,no,03AA,,03AA,,,
6697,03AL,heliport,Highland Medical Center Heliport,34.662604,-86.046774,628,NA,US,US-AL,Scottsboro,no,03AL,,03AL,,,Jackson County Hospital Heliport
6698,03AR,heliport,Hscmh Heliport,34.35760117,-92.78849792,350,NA,US,US-AR,Malvern,no,03AR,,03AR,,,
6699,03AZ,small_airport,Thompson International Aviation Airport,31.4333992,-110.0839996,4275,NA,US,US-AZ,Hereford,no,03AZ,,03AZ,,,
6700,03CA,heliport,Grossmont Hospital Heliport,32.779484,-117.006952,634,NA,US,US-CA,La Mesa,no,03CA,,03CA,,,
6701,03CO,small_airport,Kugel-Strong Airport,40.21250153,-104.7440033,4950,NA,US,US-CO,Platteville,no,03CO,,03CO,,,
6702,03FA,small_airport,Lake Persimmon Airstrip,27.35309982,-81.40809631,70,NA,US,US-FL,Lake Placid,no,03FA,,03FA,,,
6703,03FD,closed,Tharpe Airport,30.8288,-85.731003,115,NA,US,US-FL,Bonifay,no,,,,,,03FD
6704,03FL,heliport,Ranger Heliport,26.68370056,-80.18730164,20,NA,US,US-FL,West Palm Beach,no,03FL,,03FL,,,
322717,03GA,small_airport,HIA Airport,32.5623056,-81.8576944,238,NA,US,US-IN,Statesboro,no,03GA,,03GA,,,
6705,03I,closed,Clarks Dream Strip,39.644199,-83.018204,680,NA,US,US-OH,Circleville,no,,,,,,03I
6706,03IA,small_airport,East Field,41.58190155,-92.46130371,954,NA,US,US-IA,Montezuma,no,03IA,,03IA,,,
6707,03ID,small_airport,Flying Y Ranch Airport,44.79430008,-116.5329971,3180,NA,US,US-ID,Council,no,03ID,,03ID,,,
6708,03II,small_airport,Davis Field Ultralightport,37.9620018,-87.77890015,465,NA,US,US-IN,Mount Vernon,no,03II,,03II,,,
6709,03IL,small_airport,Wix Airport,41.40230179,-87.8167038,750,NA,US,US-IL,Monee,no,03IL,,03IL,,,
6710,03IN,small_airport,Heinzman Airport,40.18000031,-86.01249695,850,NA,US,US-IN,Arcadia,no,03IN,,03IN,,,
6711,03IS,heliport,OSF St Anthony's Health Center Heliport,38.904999,-90.173401,580,NA,US,US-IL,Alton,no,03IS,,03IS,,,St Anthony's Hospital
6712,03KS,heliport,Valley Grain Heliport,39.86470032,-95.26409912,1160,NA,US,US-KS,Highland,no,03KS,,03KS,,,
6713,03KY,small_airport,Flying H Farms Airport,37.79169846,-87.54139709,385,NA,US,US-KY,Henderson,no,03KY,,03KY,,,
6714,03LA,heliport,Damien Heliport,30.19960022,-91.12789917,25,NA,US,US-LA,Carville,no,03LA,,03LA,,,
6715,03LS,heliport,Fmc Nr 1 Heliport,32.1590004,-91.70800018,79,NA,US,US-LA,Winnsboro,no,03LS,,03LS,,,
6717,03MA,small_airport,Hadley Airport,42.39310074,-72.55200195,150,NA,US,US-MA,Hadley,no,03MA,,03MA,,,
6718,03MD,heliport,Upper Chesapeake Medical Center Heliport,39.52249908,-76.3266983,302,NA,US,US-MD,Bel Air,no,03MD,,03MD,,,
6719,03ME,small_airport,Maple Ridge Airport,44.08420181,-70.62729645,556,NA,US,US-ME,Harrison,no,03ME,,03ME,,,
6720,03MI,heliport,Harold Miller Heliport,43.55089951,-83.86219788,585,NA,US,US-MI,Bay City,no,03MI,,03MI,,,
6721,03MN,small_airport,Nauerth Land Ranch Airport,43.62519836,-95.22470093,1435,NA,US,US-MN,Lakefield,no,03MN,,03MN,,,
6722,03MO,closed,Cahoochie Airport,37.884499,-93.131599,1010,NA,US,US-MO,Urbana,no,,,,,,03MO
6723,03MS,heliport,Vicksburg Medical Center Heliport,32.31880188,-90.8832016,110,NA,US,US-MS,Vicksburg,no,03MS,,03MS,,,
6724,03MT,small_airport,Cascade Field,47.267327,-111.71748,3580,NA,US,US-MT,Cascade,no,3MT7,,3MT7,,,03MT
6725,03MU,small_airport,Mc Donnell Airport,38.49250031,-94.41249847,874,NA,US,US-MO,Archie,no,03MU,,03MU,,,
4650,03N,small_airport,Utirik Airport,11.222,169.852005,4,OC,MH,MH-UTI,Utirik Island,yes,K03N,UTK,03N,,https://en.wikipedia.org/wiki/Utirik_Airport,
6726,03NC,small_airport,Pilots Ridge Airport,34.10430145,-77.90419769,35,NA,US,US-NC,Carolina Beach,no,03NC,,03NC,,,
6727,03ND,small_airport,Olafson Brothers Airport,48.62639999,-97.82900238,1045,NA,US,US-ND,Edinburg,no,03ND,,03ND,,,
6728,03NE,small_airport,Hyde Ranch Airport,41.54639816,-99.33119965,2430,NA,US,US-NE,Comstock,no,03NE,,03NE,,,
6729,03NH,heliport,Lorden Heliport,42.81539917,-71.12439728,400,NA,US,US-NH,Milford,no,03NH,,03NH,,,
6730,03NJ,heliport,At&T Heliport,40.66870117,-74.41069794,360,NA,US,US-NJ,Berkeley Heights,no,03NJ,,03NJ,,,
6731,03NV,small_airport,Llama Ranch Airport,40.58440018,-115.2979965,6120,NA,US,US-NV,Ruby Valley,no,03NV,,03NV,,,
6732,03NY,small_airport,Talmage Field,40.95840073,-72.71679688,95,NA,US,US-NY,Riverhead,no,03NY,,03NY,,,
6733,03OH,small_airport,Gibbs Field,41.41839981,-83.01740265,580,NA,US,US-OH,Fremont,no,03OH,,03OH,,,
6734,03OI,heliport,Marymount Hospital Heliport,41.42089844,-81.59980011,890,NA,US,US-OH,Garfield Heights,no,03OI,,03OI,,,
6735,03OK,small_airport,Sahoma Lake Airport,36.04119873,-96.16139984,890,NA,US,US-OK,Sapulpa,no,03OK,,03OK,,,
6736,03OR,small_airport,Powwatka Ridge Airport,45.85540009,-117.4840012,3340,NA,US,US-OR,Troy,no,03OR,,03OR,,,
6737,03PA,heliport,Collegeville Heliport,40.16289902,-75.46569824,197,NA,US,US-PA,Collegeville,no,03PA,,03PA,,,
6738,03PN,heliport,M.P. Metals Heliport,41.066861,-76.180806,479,NA,US,US-PA,Berwick,yes,03PN,,03PN,,,
322892,03PR,small_airport,Sun View Field Airport,39.065947,-94.921703,980,NA,US,US-KS,Bonner Springs,no,03PR,,03PR,,,
6739,03PS,closed,Ziggy's Field,40.849998,-77.905602,1050,NA,US,US-PA,Bellefonte,no,,,,,,03PS
6740,03S,small_airport,Sandy River Airport,45.40179825,-122.2289963,704,NA,US,US-OR,Sandy,no,03S,,03S,,http://en.wikipedia.org/wiki/Sandy_River_Airport,
6741,03SC,heliport,Seacoast Medical Center Heliport,33.86500168,-78.66190338,73,NA,US,US-SC,Little River,no,03SC,,03SC,,,
6742,03TA,closed,Gay Hill Farm Airport,30.262699,-96.500198,505,NA,US,US-TX,Gay Hill,no,,,,,,03TA
6743,03TE,small_airport,Barronena Ranch Airport,27.49110031,-98.66950226,600,NA,US,US-TX,Hebbronville,no,03TE,,03TE,,,
6744,03TN,heliport,Eagles Landing Heliport,35.92250061,-83.57939911,1000,NA,US,US-TN,Sevierville,no,03TN,,03TN,,,
6745,03TS,heliport,Shannon Medical Center Heliport,31.4598999,-100.4380035,1825,NA,US,US-TX,San Angelo,no,03TS,,03TS,,,
6746,03TX,heliport,M D K Field,29.58160019,-95.30719757,50,NA,US,US-TX,Pearland,no,03TX,,03TX,,,
6747,03UT,small_airport,A Z Minerals Corporation Airport,37.12080002,-109.9860001,5315,NA,US,US-UT,Mexican Hat,no,03UT,,03UT,,,
6748,03VA,closed,Whipoorwill Springs Airport,38.66460037,-77.57969666,250,NA,US,US-VA,Nokesville,no,03VA,,03VA,,,
6749,03WA,small_airport,Spangle Field,47.40819931,-117.3720016,2440,NA,US,US-WA,Spangle,no,03WA,,03WA,,,
6750,03WI,small_airport,Zink Airport,44.028873,-88.883945,880,NA,US,US-WI,Berlin,no,03WI,,03WI,,,
6751,03WN,small_airport,Aerostone Ranch Airport,45.875,-120.6699982,2320,NA,US,US-WA,Goldendale,no,03WN,,03WN,,,
6752,03XS,small_airport,Creekside Airport,31.31809998,-100.7539978,2100,NA,US,US-TX,Mertzon,no,03XS,,03XS,,,
325443,04AA,small_airport,Phil's Airport,60.535833,-150.811387,250,NA,US,US-AK,Soldotna,no,04AA,,04AA,,,
6753,04AL,heliport,Anniston AHP (Anniston Army Depot),33.62639999,-85.96720123,686,NA,US,US-AL,Anniston,no,04AL,,04AL,,,
6754,04AR,heliport,Saline Memorial Hospital Heliport,34.574319,-92.586047,430,NA,US,US-AR,Benton,no,04AR,,04AR,,,
6755,04AZ,small_airport,Chinle Airport,36.15420151,-109.5510025,5515,NA,US,US-AZ,Chinle,no,04AZ,,04AZ,,,
6756,04CA,small_airport,Gray Butte Field,34.5639,-117.675003,3020,NA,US,US-CA,Palmdale,no,KGXA,,04CA,,,
6757,04CL,small_airport,Hunt's Sky Ranch Airport,33.08169937,-116.4410019,2310,NA,US,US-CA,Julian,no,04CL,,04CL,,,
6758,04CT,heliport,Shingle Mill Heliport,41.75510025,-73.05239868,880,NA,US,US-CT,Harwinton,no,04CT,,04CT,,,
6759,04F,closed,De Leon Municipal Airport,32.098801,-98.525325,1293,NA,US,US-TX,De Leon,no,,,,,,04F
6760,04FA,small_airport,Richards Field,25.55870056,-80.51509857,9,NA,US,US-FL,Homestead,no,04FA,,04FA,,,
324859,04FD,heliport,Tampa General Hospital Brandon Healthplex Heliport,27.929372,-82.336981,37,NA,US,US-FL,Brandon,no,04FD,,04FD,,,
6761,04FL,small_airport,Cross Creek Farms Airport,29.23940086,-81.22200012,30,NA,US,US-FL,Ormond,no,04FL,,04FL,,,
6762,04I,small_airport,Columbus Southwest Airport,39.91120148,-83.188797,920,NA,US,US-OH,Columbus,no,04I,,04I,,,
6763,04IA,small_airport,Middlekoop Airport,41.0882988,-92.05460358,801,NA,US,US-IA,Packwood,no,04IA,,04IA,,,
6764,04ID,small_airport,Lanham Field,43.87770081,-116.5370026,2343,NA,US,US-ID,Emmett,no,04ID,,04ID,,,
6765,04II,small_airport,Turkey Run Airport,41.13059998,-84.99410248,765,NA,US,US-IN,New Haven,no,04II,,04II,,,
6766,04IL,small_airport,Schertz Aerial Service - Hudson Airport,40.63750076,-89.00700378,755,NA,US,US-IL,Hudson,no,04IL,,04IL,,,
6767,04IS,small_airport,Van Gorder Airport,40.17860031,-88.56900024,728,NA,US,US-IL,Mansfield,no,04IS,,04IS,,,
6768,04KS,heliport,Robinson Industries Heliport,38.97890091,-95.21970367,835,NA,US,US-KS,Lawrence,no,04KS,,04KS,,,
6769,04KY,small_airport,Natchez Trace Farm Airport,37.13510132,-85.78939819,710,NA,US,US-KY,Hiseville,no,04KY,,04KY,,,
6770,04LA,heliport,St James Heliport,30.051111,-90.702222,10,NA,US,US-LA,Lutcher,no,04LA,,04LA,,,
6771,04LL,small_airport,Brunner Airport,42.13610077,-88.28759766,750,NA,US,US-IL,West Dundee,no,04LL,,04LL,,,
6772,04LS,heliport,La National Guard Heliport,30.44610023,-91.1053009,52,NA,US,US-LA,Baton Rouge,no,04LS,,04LS,,,
6773,04MA,closed,Goddard Field (Airport),42.80979919,-71.1391983,200,NA,US,US-MA,Haverhill,no,04MA,,04MA,,,
6774,04MD,heliport,Chesapeake City Heliport,39.51810074,-75.8214035,40,NA,US,US-MD,Chesapeake City,no,04MD,,04MD,,,
6775,04ME,small_airport,Beech Hill Airport,44.66669846,-69.89389801,625,NA,US,US-ME,Mercer,no,04ME,,04ME,,,
6776,04MI,small_airport,Rapids Airway Airport,42.53450012,-84.62830353,880,NA,US,US-MI,Eaton Rapids,no,04MI,,04MI,,,
6777,04MN,small_airport,Helblad Airport,47.9858017,-94.68689728,1195,NA,US,US-MN,Kelliher,no,04MN,,04MN,,,
6778,04MO,small_airport,Airpark Private Airport,39.30120087,-91.45149994,767,NA,US,US-MO,Vandalia,no,04MO,,04MO,,,
6779,04MS,small_airport,Nick's Flying Service Inc Airport,32.9396019,-90.83730316,100,NA,US,US-MS,Rolling Fork,no,04MS,,04MS,,,
6780,04MT,small_airport,Pluhar Airport,47.13749778,-106.488095,2715,NA,US,US-MT,Cohagen,no,04MT,,04MT,,,
6781,04NC,heliport,Western Wake Medical Center Heliport,35.73920059,-78.78220367,445,NA,US,US-NC,Cary,no,04NC,,04NC,,,
6782,04NE,small_airport,Mc Connell Field Airport,41.15999985,-101.2990036,3035,NA,US,US-NE,Sarben,no,04NE,,04NE,,,
6783,04NJ,small_airport,Emmanuel Airport,39.59680176,-75.23349762,155,NA,US,US-NJ,Elmer,no,04NJ,,04NJ,,,
6784,04NV,small_airport,Kingston Ranch Airport,35.75550079,-115.6650009,2620,NA,US,US-NV,Sandy Valley,no,04NV,,04NV,,,
6785,04NY,small_airport,Klaverack Airport,42.26229858,-73.69619751,250,NA,US,US-NY,Hudson,no,04NY,,04NY,,,
45733,04OG,heliport,Teufel Heliport,45.530833,-123.085556,185,NA,US,US-OR,Forest Grove,no,04OG,,04OG,,,
6786,04OH,closed,Bossow Airport,41.2477,-81.100701,1080,NA,US,US-OH,Garrettsville,no,,,,,,04OH
6787,04OK,heliport,Stillwater Medical Center Heliport,36.11529922,-97.07949829,984,NA,US,US-OK,Stillwater,no,04OK,,04OK,,,
6788,04OR,small_airport,Collins Landing Strip,44.74990082,-120.2009964,1500,NA,US,US-OR,Mitchell,no,04OR,,04OR,,,
6789,04PA,heliport,S & C Distribution Center Heliport,39.87929916,-75.22879791,50,NA,US,US-PA,Philadelphia,no,04PA,,04PA,,,
6790,04PN,heliport,Strawbridge & Clothier Exton Heliport,40.0306619,-75.63021,320,NA,US,US-PA,Exton,no,04PN,,04PN,,,
6791,04SC,heliport,Emergency Helipad,34.84059906,-82.60690308,994,NA,US,US-SC,Easley,no,04SC,,04SC,,,
325773,04SD,heliport,Cheyenne River Health Center Heliport,44.993124,-101.243011,2437,NA,US,US-SD,Eagle Butte,no,04SD,,04SD,,,
6792,04TA,heliport,Capitol National Bank Building Heliport,30.27104167,-97.74469757,540,NA,US,US-TX,Austin,no,04TA,,04TA,,,
6793,04TE,heliport,Veterans Affairs Medical Center Heliport,29.70019913,-95.38739777,49,NA,US,US-TX,Houston,no,04TE,,04TE,,,
6794,04TN,small_airport,Hensley Airpark,36.18330002,-82.67890167,1430,NA,US,US-TN,Chuckey,no,04TN,,04TN,,,
6795,04TS,heliport,Hummingbird Heliport,30.55349922,-97.60610199,690,NA,US,US-TX,Hutto,no,04TS,,04TS,,,
6796,04TX,small_airport,Pocock Airport,31.73220062,-97.36889648,565,NA,US,US-TX,China Spring,no,04TX,,04TX,,,
6797,04UT,small_airport,Navajo Mountain Airport,37.00830078,-110.7949982,6160,NA,US,US-UT,Navajo Mountain Trdng Post,no,04UT,,04UT,,,
6798,04V,small_airport,Saguache Municipal Airport,38.0990833,-106.1743889,7826,NA,US,US-CO,Saguache,no,04V,,04V,,,
6799,04VA,heliport,Russell County Medical Center Heliport,36.898,-82.078,2004,NA,US,US-VA,Lebanon,yes,04VA,,04VA,,,
6800,04VG,small_airport,Manquin Flight Park Ultralightport,37.71440125,-77.21179962,50,NA,US,US-VA,Manquin,no,04VG,,04VG,,,
6801,04VT,small_airport,Lightning Bolt Field Airport,44.40110016,-72.26360321,2156,NA,US,US-VT,Cabot,no,04VT,,04VT,,,
6802,04W,small_airport,Field of Dreams Airport,46.02280045,-92.895401,1021,NA,US,US-MN,Hinckley,no,04W,,04W,,,
6803,04WA,small_airport,Ox Meadows Airport,47.58179855,-117.4369965,2345,NA,US,US-WA,Spokane,no,04WA,,04WA,,,
6804,04WI,small_airport,Dutch Gap Airstrip,42.52339935,-88.01670074,760,NA,US,US-WI,Bristol,no,04WI,,04WI,,,
45903,04WN,small_airport,Stillwater Creek Airport,46.963889,-119.641667,1510,NA,US,US-WA,Royal City,no,04WN,,04WN,,,
6805,04WV,heliport,West Virginia Univ. Hosp. Inc. Gnd. Pad #2 Heliport,39.65361111,-79.95611111,1137,NA,US,US-WV,Morgantown,no,04WV,,04WV,,,
6806,04XS,closed,Schmidts Heliport,32.5821,-97.142502,625,NA,US,US-TX,Mansfield,no,,,,,,"04XS, Napiers Heliport"
6807,05AK,small_airport,Wasilla Creek Airpark,61.66830063,-149.1880035,620,NA,US,US-AK,Palmer,yes,05AK,,05AK,,,
6808,05AL,heliport,Allen Stagefield Army Heliport,31.23119926,-85.64969635,365,NA,US,US-AL,Fort Rucker/Wicksburg,no,05AL,,05AL,,,
45302,05AR,small_airport,Ozark Skies Airpark,36.000633,-93.57025,1900,NA,US,US-AR,Kingston,no,05AR,,05AR,,,
6809,05AZ,heliport,Yuma Regional Medical Center Heliport,32.68280029,-114.6340027,200,NA,US,US-AZ,Yuma,no,05AZ,,05AZ,,,
6811,05CA,heliport,Lost Hills Sheriff's Station Heliport,34.13779831,-118.7139969,888,NA,US,US-CA,Calabasas,no,05CA,,05CA,,,
6812,05CL,small_airport,Pope Valley Airport,38.6106987,-122.3909988,618,NA,US,US-CA,Pope Valley,no,05CL,,05CL,,,
6813,05CO,small_airport,Rancho De Aereo Airport,40.2149839,-104.9844228,4978,NA,US,US-CO,Mead,yes,05CO,,05CO,,,
6814,05CT,heliport,O And G Heliport,41.77370071,-73.11620331,600,NA,US,US-CT,Torrington,no,05CT,,05CT,,,
6815,05FA,small_airport,Melanie's Airport,30.91889954,-86.21829987,295,NA,US,US-FL,Florala,no,05FA,,05FA,,,
6816,05FD,heliport,Aventura Heliport,25.96089935,-80.1391983,6,NA,US,US-FL,North Miami Beach,no,05FD,,05FD,,,
6817,05FL,small_airport,Charlton Strip,26.5230999,-81.40830231,36,NA,US,US-FL,La Belle,no,05FL,,05FL,,,
6818,05GA,small_airport,Raju Airport,32.07139969,-84.71440125,625,NA,US,US-GA,Richland,no,05GA,,05GA,,,
6819,05IA,small_airport,Spotts Field,43.13750076,-93.06829834,1155,NA,US,US-IA,Nora Springs,no,05IA,,05IA,,,
6820,05ID,small_airport,Running Creek Ranch Airport,45.914101,-114.835999,2969,NA,US,US-ID,Grangeville,no,05ID,,05ID,,,72U
6821,05II,small_airport,Reichhart Airport,41.02870178,-84.99720001,795,NA,US,US-IN,New Haven,no,05II,,05II,,,
6822,05IL,small_airport,Classic Landings Airport,41.15670013,-88.01670074,635,NA,US,US-IL,Bonfield,no,05IL,,05IL,,,
6823,05IN,small_airport,Cooper Airport,39.64199829,-86.5042038,860,NA,US,US-IN,Belleville,no,05IN,,05IN,,,
6824,05IS,small_airport,Hardy Airport,39.72589874,-89.26399994,605,NA,US,US-IL,Mount Auburn,no,05IS,,05IS,,,
6825,05KS,small_airport,Darbro Field,37.26620102,-95.959198,945,NA,US,US-KS,Elk City,no,05KS,,05KS,,,
6826,05KY,small_airport,Cartersville Airport,37.53689957,-84.40720367,1070,NA,US,US-KY,Berea,no,05KY,,05KY,,,
6827,05LA,small_airport,Greg's Flying Service Airport,32.26530075,-91.69779968,76,NA,US,US-LA,Baskin,no,05LA,,05LA,,,
6828,05LL,heliport,Midwest Heliport,41.74890137,-87.93509674,710,NA,US,US-IL,Willowbrook,no,05LL,,05LL,,,
6829,05LS,small_airport,Grass Roots Airport,31.25219917,-92.47579956,83,NA,US,US-LA,Alexandria,no,05LS,,05LS,,,
6830,05M,heliport,Pauls Valley General Hospital Heliport,34.71979,-97.214237,911,NA,US,US-OK,Pauls Valley,no,,,,,,"OK28, 05M"
6831,05MA,heliport,Bentley Heliport,42.69120026,-70.91230011,80,NA,US,US-MA,Ipswich,no,05MA,,05MA,,,
6832,05MD,small_airport,Breezecroft Airport,39.25009918,-76.2052002,20,NA,US,US-MD,Chestertown,no,05MD,,05MD,,,
6833,05ME,small_airport,Drisko Airport,44.6570015,-67.55919647,70,NA,US,US-ME,Jonesboro,no,05ME,,05ME,,,
322876,05MN,heliport,Northern Pines Medical Center Heliport,47.5175001,-92.2302778,1446,NA,US,US-MN,Aurora,no,05MN,,05MN,,,
6834,05MO,heliport,Portageville Community Heliport,36.42979813,-89.68009949,272,NA,US,US-MO,Portageville,no,05MO,,05MO,,,
6835,05MS,heliport,Va Medical Center Jackson Heliport,32.31890106,-90.16809845,359,NA,US,US-MS,Jackson,no,05MS,,05MS,,,
329892,05MT,small_airport,Jones Landing,45.815368,-111.152163,4364,NA,US,US-MT,Belgrade,no,05MT,,05MT,,,
6836,05NC,closed,Brunswick Community Hospital Heliport,34.008099,-78.2911,63,NA,US,US-NC,Supply,no,,,,,,05NC
6837,05NE,small_airport,Mc Kay Airport,41.72219849,-98.30899811,2010,NA,US,US-NE,Spalding,no,05NE,,05NE,,,
6838,05NH,heliport,Stumpfield Heliport,42.9239006,-70.95140076,200,NA,US,US-NH,Kensington,no,05NH,,05NH,,,
6839,05NJ,heliport,Paulus Hook Pier Heliport,40.7140007,-74.03150177,7,NA,US,US-NJ,Jersey City,no,05NJ,,05NJ,,,
324404,05NV,small_airport,Baker Ranches Airport,39.0311,-114.088219,5180,NA,US,US-NV,Baker,no,05NV,,05NV,,,
6840,05NY,heliport,Oswego County At Pulaski Heliport,43.55199814,-76.09020233,445,NA,US,US-NY,Pulaski,no,05NY,,05NY,,,
6841,05OI,small_airport,Dorlon Airpark,41.28839874,-81.96260071,830,NA,US,US-OH,Columbia Station,no,05OI,,05OI,,,
6842,05OK,closed,Hawk Haven Airport,35.8534,-97.567497,1075,NA,US,US-OK,Crescent,no,,,,,,05OK
6843,05OR,small_airport,Peacock Ranch Airport,45.44150162,-117.3509979,3500,NA,US,US-OR,Enterprise,no,05OR,,05OR,,,
6844,05PA,heliport,PECO Mob. Heliport,39.9548,-75.178201,110,NA,US,US-PA,Philadelphia,no,05PA,,05PA,,,Philadelphia Market Street Heliport
6845,05PN,heliport,State Police Area Iii Heliport,40.30009842,-76.85800171,485,NA,US,US-PA,Harrisburg,no,05PN,,05PN,,,
6846,05PS,small_airport,Mills Brothers Airport,40.14279938,-77.86190033,1210,NA,US,US-PA,Burnt Cabins,no,05PS,,05PS,,,
6847,05S,small_airport,Vernonia Airfield,45.85150146,-123.2419968,647,NA,US,US-OR,Vernonia,no,05S,,05S,,http://en.wikipedia.org/wiki/Vernonia_Airfield,
6848,05TA,small_airport,Brandes Air Field,29.8090992,-96.26509857,276,NA,US,US-TX,Sealy,no,05TA,,05TA,,,
6849,05TE,small_airport,Hilde-Griff Field,30.7220993,-97.79139709,950,NA,US,US-TX,Georgetown,no,05TE,,05TE,,,
6850,05TN,closed,Thurmond Glenn Field,35.556998,-89.552903,285,NA,US,US-TN,Covington,no,,,,,,05TN
6851,05TS,small_airport,Dew Drop Airport,33.12929916,-97.3585968,750,NA,US,US-TX,Justin,no,05TS,,05TS,,,
6852,05TX,small_airport,Circle 'A' Ranch Airport,32.12919998,-97.40419769,608,NA,US,US-TX,Blum,no,05TX,,05TX,,,
6853,05UT,small_airport,Oljato Airport,37.03329849,-110.3170013,4838,NA,US,US-UT,Oljato,no,05UT,,05UT,,,
6854,05V,small_airport,Blanca Airport,37.41109848,-105.552002,7720,NA,US,US-CO,Blanca,no,05V,,05V,,,
6855,05VA,small_airport,Providence Airport,37.2242012,-78.41860199,445,NA,US,US-VA,Farmville,no,05VA,,05VA,,,
6856,05VT,heliport,Port of Highgate Springs Heliport,45.01330185,-73.08670044,68,NA,US,US-VT,Highgate Springs,no,05VT,,05VT,,,
6857,05WA,heliport,Sacred Heart Medical Center Helistop,47.64820099,-117.4140015,2220,NA,US,US-WA,Spokane,no,05WA,,05WA,,,
6858,05WI,small_airport,Ames Private Airport,42.65110016,-88.74590302,958,NA,US,US-WI,Darien,no,05WI,,05WI,,,
45907,05WN,small_airport,Flat Creek Field,48.702222,-118.0475,1570,NA,US,US-WA,Kettle Falls,no,05WN,,05WN,,,
6859,05XS,small_airport,Johnson Memorial Airport,33.07929993,-91.54319763,105,NA,US,US-AR,Wilmot,no,05XS,,05XS,,,
6860,05Y,small_airport,Henning Municipal Airport,46.30379868,-95.4394989,1455,NA,US,US-MN,Henning,no,05Y,,05Y,,,
45272,06AK,small_airport,June Lake Airpark,61.627619,-149.575331,425,NA,US,US-AK,Wasilla,no,06AK,,06AK,,,
6861,06AL,heliport,Brown Stagefield Army Heliport,31.38839912,-85.97239685,415,NA,US,US-AL,Fort Rucker/New Brockton,no,06AL,,06AL,,,
6862,06AR,small_airport,Bondair Airport,35.54449844,-92.18489838,499,NA,US,US-AR,Higden,no,06AR,,06AR,,,
6863,06AZ,heliport,Mercy Gilbert Medical Center Heliport,33.28580093,-111.7529984,1280,NA,US,US-AZ,Gilbert,no,06AZ,,06AZ,,,
6865,06CA,heliport,Sce Solar I Heliport,34.87080002,-116.8339996,1942,NA,US,US-CA,Yermo,no,06CA,,06CA,,,
6866,06CL,heliport,Abc7-Tv Heliport,35.15719986,-118.2890015,520,NA,US,US-CA,Glendale,no,06CL,,06CL,,,
6867,06CO,small_airport,Jecan Airport,37.38750076,-103.6910019,5100,NA,US,US-CO,Branson,no,06CO,,06CO,,,
6868,06FA,small_airport,William P Gwinn Airport,26.90839958,-80.3289032,28,NA,US,US-FL,Jupiter,no,06FA,,06FA,,http://en.wikipedia.org/wiki/North_Palm_Beach_County_General_Aviation_Airport,
6869,06FD,small_airport,Grass Roots Airpark,28.64170074,-81.88500214,105,NA,US,US-FL,Mascotte,no,06FD,,06FD,,,
6870,06FL,heliport,Morton Plant Hospital Heliport,27.95339966,-82.8042984,3,NA,US,US-FL,Clearwater,no,06FL,,06FL,,,
6871,06GA,heliport,Smith Heliport,33.7533989,-84.16210175,1065,NA,US,US-GA,Redan,no,06GA,,06GA,,,
6873,06IA,small_airport,Rich Field,41.84140015,-91.83429718,880,NA,US,US-IA,Walford,no,06IA,,06IA,,,
6874,06ID,small_airport,Larkin Airport,43.46269989,-116.3590012,2750,NA,US,US-ID,Kuna,no,06ID,,06ID,,,
6875,06IL,small_airport,Humm Airport,41.59949875,-88.86990356,708,NA,US,US-IL,Earlville,no,06IL,,06IL,,,
6876,06IN,closed,Ellis Fly-In Airport,39.282799,-87.303596,575,NA,US,US-IN,Blackhawk,no,,,,,,06IN
6877,06IS,small_airport,Sinele Strip,40.54639816,-91.27429962,695,NA,US,US-IL,Nauvoo,no,06IS,,06IS,,,
6878,06KS,heliport,Riverside Hospital Airlift Heliport,37.69580078,-97.37249756,1332,NA,US,US-KS,Wichita,no,06KS,,06KS,,,
6879,06KY,heliport,Falcon Heliport,37.52590179,-83.34519958,751,NA,US,US-KY,Jackson,no,06KY,,06KY,,,
6880,06LA,heliport,Panther Helicopters Inc Heliport,29.84600067,-90.02780151,,NA,US,US-LA,Belle Chasse,no,06LA,,06LA,,,
6881,06LL,closed,Hammersmith Heliport,41.8736,-88.496901,812,NA,US,US-IL,Elburn,no,,,,,,06LL
6882,06LS,heliport,Tembec Heliport,30.70789909,-91.32019806,85,NA,US,US-LA,St Francisville,no,06LS,,06LS,,,
6883,06MA,heliport,The Barn Heliport,42.69060135,-71.60900116,210,NA,US,US-MA,Pepperell,no,06MA,,06MA,,,
6884,06MD,heliport,Bayview Heliport,39.29140091,-76.5463028,132,NA,US,US-MD,Baltimore,no,06MD,,06MD,,,
322276,06ME,heliport,Barker Heliport,44.415247,-70.844275,649,NA,US,US-ME,Bethel,no,06ME,,06ME,,,
6885,06MI,heliport,W A Foote Memorial Hospital Heliport,42.25109863,-84.3914032,978,NA,US,US-MI,Jackson,no,06MI,,06MI,,,
6886,06MN,small_airport,Pike Field Airport,47.65190125,-92.41670227,1463,NA,US,US-MN,Virginia,no,06MN,,06MN,,,
6887,06MO,small_airport,Noahs Ark Airport,39.23059845,-94.80439758,755,NA,US,US-MO,Waldron,no,06MO,,06MO,,,
6888,06MT,small_airport,Torgerson Airport,48.55830002,-112.1090012,3541,NA,US,US-MT,Ethridge,no,06MT,,06MT,,,
6889,06N,small_airport,Randall Airport,41.43199921,-74.39160156,523,NA,US,US-NY,Middletown,no,06N,,06N,,,
6890,06NC,small_airport,Tailwinds Airport,34.82749939,-78.93029785,163,NA,US,US-NC,St. Pauls,no,06NC,,06NC,,,
6891,06ND,small_airport,Fitterer's Strip,46.74890137,-101.6689987,2180,NA,US,US-ND,Glen Ullin,no,06ND,,06ND,,,
6892,06NE,heliport,St Marys Hospital Heliport,40.68000031,-95.86170197,1015,NA,US,US-NE,Nebraska City,no,06NE,,06NE,,,
6893,06NH,small_airport,Cole Farm Airport,42.92839813,-70.97309875,160,NA,US,US-NH,Kensington,no,06NH,,06NH,,,
6894,06NJ,closed,Chemical Bank - New Jersey Na Heliport,39.950102,-74.999603,25,NA,US,US-NJ,Moorestown,no,,,,,,06NJ
324414,06NV,small_airport,Silver Creek Airport,39.098333,-114.150277,5556,NA,US,US-NV,Baker,no,06NV,,06NV,,,
6895,06NY,small_airport,Murphy Field,42.84280014,-76.44529724,1100,NA,US,US-NY,Auburn,no,06NY,,06NY,,,
6896,06O1,heliport,Saint Elizabeth Medical Center Heliport,41.1147995,-80.65699768,1020,NA,US,US-OH,Youngstown,no,06O1,,06O1,,,
6897,06OH,small_airport,Hal Joy Airfield,41.50979996,-80.59120178,1160,NA,US,US-OH,Williamsfield,no,06OH,,06OH,,,
6898,06OI,small_airport,Green Acres Airport,39.73479843,-84.38220215,915,NA,US,US-OH,New Lebanon,no,06OI,,06OI,,,
6899,06OK,heliport,Albert Lodge Heliport,36.54169846,-94.83360291,900,NA,US,US-OK,Grove,no,06OK,,06OK,,,
6900,06OR,small_airport,Hayden Mountain Airport,45.46509933,-123.0800018,850,NA,US,US-OR,Forest Grove,no,06OR,,06OR,,,
6901,06PA,small_airport,Freefall Oz Airport,41.995792,-78.288152,1440,NA,US,US-PA,Ceres,no,06PA,,06PA,,,"04D, Ceres Airport"
45764,06PN,heliport,Schiavoni Heliport,40.382733,-76.772533,727,NA,US,US-PA,Harrisburg,no,06PN,,06PN,,,
6902,06PS,heliport,Cherokee Island Castle Heliport,40.40230179,-79.9213028,760,NA,US,US-PA,West Homestead,no,06PS,,06PS,,,
6903,06R,small_airport,Grawunder Field,29.94190025,-96.24610138,289,NA,US,US-TX,Bellville,no,06R,,06R,,,
6904,06SN,small_airport,Beyer Farm Airport,37.58390045,-97.25309753,1340,NA,US,US-KS,Derby,no,06SN,,06SN,,,
6905,06TA,small_airport,Glaser Field,30.90850067,-97.11689758,480,NA,US,US-TX,Buckholts,no,06TA,,06TA,,,
6906,06TE,small_airport,Ainsworth Airport,30.31270027,-95.02690125,129,NA,US,US-TX,Cleveland,no,06TE,,06TE,,,
6907,06TN,small_airport,Hunter STOLport,35.69729996,-86.95690155,640,NA,US,US-TN,Columbia,no,06TN,,06TN,,,
6908,06TS,closed,Roscoe Mc Connico Airport,32.120701,-96.179101,350,NA,US,US-TX,Kerens,no,,,,,,06TS
6909,06TX,small_airport,Diamond N Ranch Airport,30.05760002,-95.81289673,215,NA,US,US-TX,Hockley,no,06TX,,06TX,,,
6910,06VA,small_airport,Mount Horeb Field,38.24900055,-78.8553009,1160,NA,US,US-VA,Grottoes,no,06VA,,06VA,,,
6911,06WA,heliport,N A Degerstrom Yard Heliport,47.68629837,-117.197998,2013,NA,US,US-WA,Spokane,no,06WA,,06WA,,,
6912,06WI,small_airport,Young Private Airport,45.66270065,-92.45020294,1075,NA,US,US-WI,Frederic,no,06WI,,06WI,,,
15372,06WN,small_airport,Western Airpark,46.92499924,-122.5530014,394,NA,US,US-WA,Yelm,no,06WN,,06WN,,,Formerly 92W
6913,06XS,small_airport,Campbell Field,33.3246994,-97.04419708,546,NA,US,US-TX,Aubrey,no,06XS,,06XS,,,
6914,06Y,small_airport,Herman Municipal Airport,45.83000183,-96.16059875,1068,NA,US,US-MN,Herman,no,06Y,,06Y,,,
318194,07AA,small_airport,Pan Lake Strip Airport,61.6959639,-149.9549028,357,NA,US,US-AK,Willow,no,07AA,,07AA,,,
6915,07AL,heliport,Tac X Stagefield Army Heliport,31.12520027,-85.97910309,132,NA,US,US-AL,Fort Rucker/Samson,no,07AL,,07AL,,,
6916,07AR,small_airport,Morrilton Airport,35.19449997,-92.80020142,300,NA,US,US-AR,Morrilton,no,07AR,,07AR,,,
6917,07AZ,closed,John C Lincoln Hospital Heliport,33.56669998,-112.0690002,1255,NA,US,US-AZ,Phoenix,no,07AZ,,07AZ,,,
6918,07B,small_airport,Blue Hill Airport,44.44800186,-68.56970215,360,NA,US,US-ME,Blue Hill,no,07B,,07B,,,
6919,07CA,heliport,West Side Hospital Heliport,35.13890076,-119.4509964,850,NA,US,US-CA,Taft,no,07CA,,07CA,,,
6920,07CL,small_airport,Richvale Airport,39.49769974,-121.7710037,100,NA,US,US-CA,Richvale,no,07CL,,07CL,,,
6921,07CO,small_airport,Comanche Creek Airport,39.2635994,-104.427002,6620,NA,US,US-CO,Kiowa,no,07CO,,07CO,,,
6922,07CT,closed,Tnt Heliport,41.45289993,-72.24960327,430,NA,US,US-CT,Salem,no,07CT,,07CT,,,
6923,07D,small_airport,Tackaberry Airport,43.0644989,-82.72380066,764,NA,US,US-MI,Avoca,no,07D,,07D,,,
6924,07FA,small_airport,Ocean Reef Club Airport,25.3253994,-80.27480316,8,NA,US,US-FL,Key Largo,no,07FA,OCA,07FA,https://www.oceanreef.com/community/private-airport-1345.html,https://en.wikipedia.org/wiki/Ocean_Reef_Club_Airport,
6925,07FD,closed,Flying G Ranch STOLport,30.417999,-83.283796,90,NA,US,US-FL,Lee,no,,,,,,07FD
6926,07FL,heliport,Southwest Florida Regional Medical Center Heliport,26.60540009,-81.85949707,18,NA,US,US-FL,Fort Myers,no,07FL,,07FL,,,
6927,07GA,small_airport,Alcovy Airport,33.67499924,-83.76309967,750,NA,US,US-GA,Covington,no,07GA,,07GA,,,
6929,07ID,small_airport,Interstate Airport,42.27819824,-113.3050003,4580,NA,US,US-ID,Malta,no,07ID,,07ID,,,
6930,07II,heliport,St Vincent Jennings Hospital Heliport,39.01060104,-85.64080048,740,NA,US,US-IN,North Vernon,no,07II,,07II,,,
6931,07IN,small_airport,Gray Airport,39.57369995,-85.91390228,750,NA,US,US-IN,Boggstown,no,07IN,,07IN,,,
6932,07K,small_airport,Central City Municipal - Larry Reineke Field,41.11259842,-98.05169678,1717,NA,US,US-NE,Central City,no,07K,,07K,,,
6933,07KS,small_airport,Heape Field,37.73419952,-96.93669891,1321,NA,US,US-KS,Augusta,no,07KS,,07KS,,,
6934,07KY,small_airport,Blue Lick Airport,38.08060074,-85.69329834,532,NA,US,US-KY,Louisville,no,07KY,,07KY,,,
6935,07LA,closed,Air Oil Inc Nr 1 Heliport,29.937099,-90.183701,,NA,US,US-LA,Harahan,no,,,,,,07LA
6936,07LS,heliport,LA State Police Troop F Heliport,32.51810074,-91.98899841,80,NA,US,US-LA,Monroe,no,07LS,,07LS,,,
6937,07MA,heliport,West Pond Heliport,41.91699982,-70.70950317,149,NA,US,US-MA,Plymouth,no,07MA,,07MA,,,
6938,07MD,small_airport,Baugher's Orchard Airport,39.60829926,-77.05190277,700,NA,US,US-MD,Westminster,no,07MD,,07MD,,,
6939,07ME,heliport,Westbrook Heliport,43.73830032,-70.33920288,250,NA,US,US-ME,Westbrook,no,07ME,,07ME,,,
6940,07MI,small_airport,Scott Airstrip,43.86420059,-85.02390289,1065,NA,US,US-MI,Lake,no,07MI,,07MI,,,
6941,07MN,small_airport,Dairyview Airport,44.05500031,-95.90950012,1680,NA,US,US-MN,Hadley,no,07MN,,07MN,,,
6942,07MO,small_airport,Lake Sexton Airport,38.65000153,-93.61689758,880,NA,US,US-MO,Warrensburg,no,07MO,,07MO,,,
6943,07MT,small_airport,Glasgow Industrial Airport,48.42110062,-106.5279999,2762,NA,US,US-MT,Glasgow,no,07MT,,07MT,,,
6944,07N,small_airport,Bermudian Valley Airpark,40.01679993,-77.00389862,470,NA,US,US-PA,Kralltown,no,07N,,07N,,,
6945,07NC,small_airport,Hawks Meadow Airport,34.83319855,-80.75119781,625,NA,US,US-NC,Waxhaw,no,07NC,,07NC,,,
6947,07NJ,heliport,Hackensack UMC Palisades Heliport,40.793666,-73.994863,10,NA,US,US-NJ,North Bergen,no,07NJ,,07NJ,,,Palisades General Hospital Heliport
324410,07NV,small_airport,Border Line Farm Airport,39.102239,-114.053472,5120,NA,US,US-NV,Baker,no,07NV,,07NV,,,
6948,07NY,heliport,Mmc Heliport,42.66640091,-74.76499939,1320,NA,US,US-NY,Monticello,no,07NY,,07NY,,,
6949,07OH,closed,Tennessee Gas Heliport,39.9373,-81.683503,1025,NA,US,US-OH,Claysville,no,,,,,,07OH
6950,07OK,small_airport,Pleasant Valley Airport,34.63339996,-99.03369904,1322,NA,US,US-OK,Snyder,no,07OK,,07OK,,,
6951,07OR,small_airport,Bruce's Airport,45.42179871,-122.6200027,250,NA,US,US-OR,Milwaukie,no,07OR,,07OR,,,
45747,07PN,small_airport,Folmar Airport,40.998889,-78.125278,1690,NA,US,US-PA,Grassflat,no,07PN,,07PN,,,
6952,07SN,small_airport,Churchill Airport,39.77280045,-99.36009979,1965,NA,US,US-KS,Phillipsburg,no,07SN,,07SN,,,
6953,07TA,heliport,Salaika Aviation Heliport,29.240519,-95.344658,30,NA,US,US-TX,Danbury,no,07TA,,07TA,,,Salaika Aviation Airport
6954,07TE,small_airport,Cuddihy Field,27.72109985,-97.51280212,39,NA,US,US-TX,Corpus Christi,no,07TE,,07TE,,,
6955,07TN,small_airport,Corntassel Airport,35.5685997,-84.2410965,970,NA,US,US-TN,Vonore,no,07TN,,07TN,,,
6956,07TS,small_airport,Cross-Country Estates Airport,30.625,-97.57279968,690,NA,US,US-TX,Georgetown,no,07TS,,07TS,,,
6957,07TX,heliport,Pecks Heliport,33.18399811,-96.44799805,660,NA,US,US-TX,Princeton,no,07TX,,07TX,,,
310114,07UT,small_airport,E Northrop Grumman Airport,41.716667,-112.447222,4480,NA,US,US-UT,Howell,no,07UT,,07UT,,,"UT23, Air Force Plant 78 Airfield, ATK/Thiokol Airport"
6958,07VA,small_airport,Alpha Hotel Airport,36.81959915,-78.78309631,350,NA,US,US-VA,Clover,no,07VA,,07VA,,,
6959,07VT,small_airport,Meadow STOLport,44.44720078,-72.91470337,801,NA,US,US-VT,Jericho,no,07VT,,07VT,,,
6960,07WA,heliport,Multicare Deaconess Hospital Heliport,47.651637,-117.424477,2110,NA,US,US-WA,Spokane,no,07WA,,07WA,,,Deaconess Medical Center Heliport
6961,07WI,closed,Bartell Strip,42.965302,-88.391502,990,NA,US,US-WI,Genessee Depot,no,,,,,,07WI
6962,07XS,heliport,Allen Ponderosa Heliport,32.54219818,-97.39170074,840,NA,US,US-TX,Crowley,no,07XS,,07XS,,,
6963,07Y,small_airport,Hill City-Quadna Mountain Airport,46.95550156,-93.59690094,1289,NA,US,US-MN,Hill City,no,07Y,,07Y,,,
45248,08AK,small_airport,Fisher Airport,61.569639,-149.724439,200,NA,US,US-AK,Big Lake,no,08AK,,08AK,,,
6964,08AR,closed,Crittenden Regional Hospital Heliport,35.142046,-90.190212,206,NA,US,US-AR,West Memphis,no,,,,,,08AR
6965,08AZ,heliport,Mesa Police Heliport,33.41740036,-111.836998,1240,NA,US,US-AZ,Mesa,no,08AZ,,08AZ,,,
6966,08B,small_airport,Merrymeeting Field,44,-69.88710022,65,NA,US,US-ME,Bowdoinham,no,08B,,08B,,,
6967,08CA,heliport,Pg & E Co. Placerville Svc Center Heliport,38.69490051,-120.8270035,1810,NA,US,US-CA,Diamond Springs,no,08CA,,08CA,,,
6968,08CL,small_airport,Kistler Ranch Airport,37.85960007,-120.5540009,1025,NA,US,US-CA,Jamestown,no,08CL,,08CL,,,
45316,08CN,heliport,Tulare Motor Sports #1 Heliport,36.172031,-119.306181,270,NA,US,US-CA,Tulare,no,08CN,,08CN,,,
6969,08CO,small_airport,Terra Firma Airport,38.73249817,-104.0410004,5600,NA,US,US-CO,Rush,no,08CO,,08CO,,,
6971,08F,small_airport,City of Coalgate Airport,34.53179932,-96.23310089,615,NA,US,US-OK,Coalgate,no,08F,,08F,,,
6972,08FA,small_airport,Duda Airstrip,26.57979965,-81.48370361,35,NA,US,US-FL,La Belle,no,08FA,,08FA,,,
6973,08FD,small_airport,Sunniland Ranch Airport,27.36310005,-80.77279663,65,NA,US,US-FL,Okeechobee,no,08FD,,08FD,,,
6974,08FL,small_airport,J. H. Hendrie Farms Airport,27.08449936,-81.3286972,103,NA,US,US-FL,Lake Placid,no,08FL,,08FL,,,
6975,08G,heliport,Salt Fork Lodge Heliport,40.11090088,-81.52619934,960,NA,US,US-OH,Cambridge,no,08G,,08G,,,
6976,08GA,small_airport,Sapelo Island Airport,31.42580032,-81.2858963,12,NA,US,US-GA,Darien,no,08GA,,08GA,,,
6977,08ID,small_airport,Symms Airport,43.56930161,-116.7770004,2680,NA,US,US-ID,Marsing,no,08ID,,08ID,,,
6978,08II,heliport,Parkview Lagrange Hospital Heliport,41.645085,-85.426386,943,NA,US,US-IN,Lagrange,no,08II,,08II,,,Lagrange Hospital Heliport
6979,08IL,small_airport,Harms Airstrip,41.57699966,-89.79399872,643,NA,US,US-IL,Tampico,no,08IL,,08IL,,,
6980,08IS,small_airport,Hemmer RLA Restricted Landing Area,37.97779846,-89.20290375,400,NA,US,US-IL,Du Quoin,no,08IS,,08IS,,,
6981,08KS,small_airport,Alderson Airport,39.03469849,-97.58000183,1250,NA,US,US-KS,Bennington,no,08KS,,08KS,,,
6982,08KY,small_airport,Boss Airport,36.97259903,-84.62609863,820,NA,US,US-KY,Burnside,no,08KY,,08KY,,,
6983,08LA,heliport,Air Oil Inc Nr 2 Heliport,29.95299911,-90.18260193,4,NA,US,US-LA,Harahan,no,08LA,,08LA,,,
6984,08LL,small_airport,Sauer Airport,41.07529831,-88.48919678,665,NA,US,US-IL,Dwight,no,08LL,,08LL,,,
6985,08LS,small_airport,Aeleron Airport,30.40360069,-92.02359772,51,NA,US,US-LA,Grand Coteau,no,08LS,,08LS,,,
6986,08MA,small_airport,Wormid Airport,42.29399872,-71.49620056,360,NA,US,US-MA,Southborough,no,08MA,,08MA,,,
6987,08MD,heliport,St Joseph Hospital Heliport,39.38830185,-76.61000061,470,NA,US,US-MD,Towson,no,08MD,,08MD,,,
6988,08ME,small_airport,Lindbergh Airport,44.81420135,-70.34529877,554,NA,US,US-ME,Avon,no,08ME,,08ME,,,
6989,08MI,heliport,Sparrow Hospital Heliport,42.73419952,-84.53659821,1019,NA,US,US-MI,Lansing,no,08MI,,08MI,,,
6991,08MO,small_airport,Twin Oaks Airport,37.39559937,-94.28379822,955,NA,US,US-MO,Jasper,no,08MO,,08MO,,,
6992,08MS,small_airport,Williams Field,34.66220093,-89.86830139,345,NA,US,US-MS,Coldwater,no,08MS,,08MS,,,
6993,08MT,small_airport,Clark Airport,47.06389999,-108.8170013,3450,NA,US,US-MT,Grassrange,no,08MT,,08MT,,,
6994,08N,small_airport,Keller Brothers Airport,40.29180145,-76.32879639,550,NA,US,US-PA,Lebanon,no,08N,,08N,,,
6995,08NC,small_airport,Whiteheart Farm Airport,36.06760025,-80.46559906,750,NA,US,US-NC,Lewisville,no,08NC,,08NC,,,
6996,08ND,small_airport,Brecht Strip,47.32310104,-102.0979996,1990,NA,US,US-ND,Golden Valley,no,08ND,,08ND,,,
6997,08NE,small_airport,Laurel Municipal Airport,42.43170166,-97.07949829,1467,NA,US,US-NE,Laurel,no,08NE,,08NE,,,
6998,08NH,heliport,Memorial Hospital Heliport,44.06129837,-71.13580322,574,NA,US,US-NH,North Conway,no,08NH,,08NH,,,
6999,08NJ,heliport,St Barnabas Medical Center Heliport,40.76259995,-74.30400085,429,NA,US,US-NJ,Livingston,no,08NJ,,08NJ,,,
7000,08NY,small_airport,Md1 Airport,41.36809921,-74.50559998,650,NA,US,US-NY,Middletown,no,08NY,,08NY,,,
7001,08OH,small_airport,Kenley Airport,41.29169846,-80.56369781,1230,NA,US,US-OH,Hartford,no,08OH,,08OH,,,
7002,08OK,small_airport,Parks Airport,34.93149948,-95.25830078,635,NA,US,US-OK,Wilburton,no,08OK,,08OK,,,
327859,08OL,small_airport,Broken B Airport,35.408087,-98.605477,1518,NA,US,US-OK,Hydro,no,08OL,,08OL,,,
7003,08OR,small_airport,Saxon Sycan Airport,42.83929825,-121.1169968,4990,NA,US,US-OR,Silver Lake,no,08OR,,08OR,,,
7004,08PA,heliport,Pocono Raceway Heliport,41.0583992,-75.49960327,1812,NA,US,US-PA,Pocono Pines,no,08PA,,08PA,,,
7005,08PN,heliport,Thomson Heliport,40.04589844,-76.28079987,310,NA,US,US-PA,Lancaster,no,08PN,,08PN,,,
7006,08R,small_airport,Richmond Airport,41.48949814,-71.62059784,130,NA,US,US-RI,West Kingston,no,08R,,08R,,,
7007,08TA,heliport,Rancho Del Lago Heliport,29.95190048,-98.22450256,1208,NA,US,US-TX,Fischer,no,08TA,,08TA,,,
7008,08TE,small_airport,B. J. Mc Combs Sisterdale Airport,29.975331,-98.742451,1447,NA,US,US-TX,Comfort,no,,,,,,08TE
7009,08TS,closed,Puesta Del Sol Airport,26.881331,-98.504885,420,NA,US,US-TX,La Gloria,no,,,,,,08TS
7010,08TX,small_airport,Cross Wind Airport,32.85820007,-97.74749756,1040,NA,US,US-TX,Weatherford,no,08TX,,08TX,,,
7011,08U,small_airport,Stevens-Crosby Airport,41.51570129,-115.8600006,6397,NA,US,US-NV,North Fork,no,08U,,08U,,,
7012,08VA,small_airport,Springwood Airstrip,37.55400085,-79.74980164,1000,NA,US,US-VA,Buchanan,no,08VA,,08VA,,,
7013,08WA,closed,Manchester Laboratory Heliport,47.574299,-122.547997,2,NA,US,US-WA,Manchester,no,,,,,,08WA
7014,08WI,closed,Pierick Airport,43.04359818,-90.35510254,1225,NA,US,US-WI,Highland,no,08WI,,08WI,,,
322194,08XA,small_airport,Knolle Ranch Airport,30.479253,-96.504031,280,NA,US,US-TX,Snook,no,08XA,,08XA,,,
7015,08XS,small_airport,Peterson Airport,29.10810089,-95.77749634,45,NA,US,US-TX,Old Ocean,no,08XS,,08XS,,,
329058,09AA,heliport,Sheldon Chalet Heliport,62.969888,-150.75375,5742,NA,US,US-AK,Talkeetna,no,09AA,,09AA,,,
45270,09AK,small_airport,West Beaver Airport,61.589361,-149.847333,228,NA,US,US-AK,Big Lake,no,09AK,,09AK,,,
7016,09AR,heliport,Magnolia Hospital Heliport,33.27320099,-93.23989868,310,NA,US,US-AR,Magnolia,no,09AR,,09AR,,,
7017,09AZ,small_airport,Stronghold Airport,31.9253006,-110.038002,4970,NA,US,US-AZ,St David,no,09AZ,,09AZ,,,
7018,09CA,heliport,Mee Memorial Hospital Heliport,36.20554,-121.132503,320,NA,US,US-CA,King City,no,09CA,,09CA,,,
7019,09CL,small_airport,Alta Sierra Airport,39.11380005,-121.0569992,2275,NA,US,US-CA,Grass Valley,no,09CL,,09CL,,,
45317,09CN,heliport,Tulare Motor Sports #2 Heliport,36.182556,-119.313572,272,NA,US,US-CA,Tulare,no,09CN,,09CN,,,
7020,09CO,small_airport,Cottonwood Field,38.05559921,-103.6529999,4180,NA,US,US-CO,Swink,no,09CO,,09CO,,,
7021,09FA,small_airport,Placid Lakes Airport,27.24559975,-81.4131012,130,NA,US,US-FL,Lake Placid,no,09FA,,09FA,,,
7022,09FD,small_airport,Cheryl-Lane Landings Airport,28.67110062,-82.08730316,71,NA,US,US-FL,Bushnell,no,09FD,,09FD,,,
7023,09FL,small_airport,Sunnybreeze Airport,27.05559921,-81.97059631,60,NA,US,US-FL,Arcadia,no,09FL,,09FL,,,
7024,09GA,small_airport,Sunbelt Strip,31.11129951,-83.68409729,230,NA,US,US-GA,Moultrie,no,09GA,,09GA,,,
7026,09IA,small_airport,Skydive Iowa Airport,41.74580002,-92.40930176,820,NA,US,US-IA,Brooklyn,no,09IA,,09IA,,,
7027,09ID,small_airport,Taylor Ranch Landing Area Airport,45.10390091,-114.8550034,3835,NA,US,US-ID,Moscow,no,09ID,,09ID,,,
7028,09II,small_airport,Gibbons Field,38.44729996,-86.44499969,880,NA,US,US-IN,Valeene,no,09II,,09II,,,
7029,09IL,closed,Silver Cross Hospital Heliport,41.536183,-88.052279,610,NA,US,US-IL,Joliet,no,,,,,,09IL
7030,09IN,small_airport,Gordon Airport,41.1208992,-85.42500305,850,NA,US,US-IN,Columbia City,no,09IN,,09IN,,,
7031,09IS,heliport,Swedish American Heliport,42.26499939,-89.07430267,874,NA,US,US-IL,Rockford,no,09IS,,09IS,,,
7032,09KS,small_airport,Coffman Airport,38.70700073,-95.13829803,970,NA,US,US-KS,Wellsville,no,09KS,,09KS,,,
7033,09KY,heliport,Baptist Hospital East Heliport,38.23899841,-85.63939667,531,NA,US,US-KY,Louisville,no,09KY,,09KY,,,
7034,09LA,heliport,Era Helicopters Fourchon Helibase Heliport,29.12330055,-90.2016983,2,NA,US,US-LA,Grand Isle,no,09LA,,09LA,,,
7035,09LL,small_airport,Pine Hill Airport,42.4681015,-88.74320221,1000,NA,US,US-IL,Capron,no,09LL,,09LL,,,
7036,09LS,heliport,West Feliciana Sheriff's Office Heliport,30.82439995,-91.38459778,181,NA,US,US-LA,St Francisville,no,09LS,,09LS,,,
7037,09MA,small_airport,Kallander Field,42.3042984,-71.50589752,403,NA,US,US-MA,Southborough,no,09MA,,09MA,,,
7038,09ME,small_airport,Perrotti Skyranch Airfield,43.34080124,-70.85469818,260,NA,US,US-ME,Berwick,no,09ME,,09ME,,,
7039,09MI,heliport,Michigan National Guard Headquarters Heliport,42.70809937,-84.56079865,842,NA,US,US-MI,Lansing,no,09MI,,09MI,,,
7040,09MN,small_airport,W Johnson Field,44.77999878,-95.66359711,1060,NA,US,US-MN,Hazel Run,no,09MN,,09MN,,,
7041,09MO,small_airport,Hogue Farm Airport,37.3783989,-93.36329651,1210,NA,US,US-MO,Willard,no,09MO,,09MO,,,
7042,09N,small_airport,Airhaven Airport,41.83259964,-73.87599945,450,NA,US,US-NY,Staatsburg,no,09N,,09N,,,
7043,09NC,small_airport,William Irving Lewis Airport,35.32929993,-79.02999878,310,NA,US,US-NC,Broadway,no,09NC,,09NC,,,
7044,09NE,small_airport,Summer Hill Farm Airport,41.33330154,-96.19360352,1250,NA,US,US-NE,Bennington,no,09NE,,09NE,,,
7045,09NJ,heliport,Stonebridge Farm Helistop,40.65370178,-74.68650055,100,NA,US,US-NJ,Somerville,no,09NJ,,09NJ,,,
324843,09NR,small_airport,Dakota Air Ranch Airport,35.650122,-79.650311,561,NA,US,US-NC,Ramseur,no,09NR,,09NR,,,
7046,09NY,heliport,Spring Lake Fire Department Heliport,41.92890167,-74.04889679,254,NA,US,US-NY,Kingston,no,09NY,,09NY,,,
7047,09OK,small_airport,Ragtime Aerodrome,36.35449982,-95.86389923,700,NA,US,US-OK,Collinsville,no,09OK,,09OK,,,
7048,09OR,heliport,Mid-Columbia Medical Center Heliport,45.587235,-121.163827,487,NA,US,US-OR,The Dalles,no,09OR,,09OR,,http://en.wikipedia.org/wiki/Mid-Columbia_Medical_Center_Heliport,
7049,09PA,small_airport,Eagle Field,40.82699966,-77.98809814,1780,NA,US,US-PA,Port Matilda,no,09PA,,09PA,,,
7050,09PN,heliport,Hundley Residence Heliport,40.56200027,-75.1427002,480,NA,US,US-PA,Kintersville,no,09PN,,09PN,,,
7051,09S,small_airport,Sullivan Lake State Airport,48.84090042,-117.2839966,2614,NA,US,US-WA,Metaline Falls,no,09S,,09S,,,
14580,09TA,small_airport,Lazy G Bar Ranch Airport,33.282101,-97.497002,923,NA,US,US-TX,Decatur,no,,,09T,,,"Formerly 82T, 09TA"
7052,09TE,small_airport,Running M Ranch Airport,32.26679993,-97.86699677,787,NA,US,US-TX,Glen Rose,no,09TE,,09TE,,,
7053,09TN,heliport,Univ of Tennessee Medical Center Heliport,35.94169998,-83.94400024,924,NA,US,US-TN,Knoxville,no,09TN,,09TN,,,
7054,09TS,small_airport,Pitcock Rosillos Mountain Ranch Airport,29.48240089,-103.1650009,3100,NA,US,US-TX,Marathon,no,09TS,,09TS,,,
7055,09TX,small_airport,Smokey Mtn Ranch Airport,30.7390995,-102.0240021,2522,NA,US,US-TX,Sheffield,no,09TX,,09TX,,,
7056,09VA,small_airport,Alum Ridge STOLport,36.97650146,-80.49389648,2375,NA,US,US-VA,Floyd,no,09VA,,09VA,,,
7057,09VG,heliport,Augusta Medical Center Heliport,38.09080124,-78.98500061,1390,NA,US,US-VA,Fishersville,no,09VG,,09VG,,,
7058,09W,heliport,South Capitol Street Heliport,38.86869812,-77.00749969,10,NA,US,US-DC,Washington,no,09W,,09W,,,
7059,09WA,heliport,Holy Family Hospital Heliport,47.71039963,-117.4069977,2081,NA,US,US-WA,Spokane,no,09WA,,09WA,,,
7060,09WI,small_airport,Parkway Farm Strip,44.00360107,-91.30760193,705,NA,US,US-WI,Holmen,no,09WI,,09WI,,,
7061,09XS,heliport,Baptist Medical Center Heliport,29.43300056,-98.49220276,710,NA,US,US-TX,San Antonio,no,09XS,,09XS,,,
322435,0AA6,heliport,Big Salmon Heliport,59.403055,-136.013611,292,NA,US,US-AK,Haines,no,0AA6,,0AA6,,,
325323,0AA7,small_airport,Kalifonsky Meadows Airport,60.491537,-151.2352525,65,NA,US,US-AK,Kenai,no,0AA7,,0AA7,,,
7063,0AK,small_airport,Pilot Station Airport,61.934601,-162.899994,305,NA,US,US-AK,Pilot Station,yes,,PQS,0AK,,https://en.wikipedia.org/wiki/Pilot_Station_Airport,
7064,0AK0,small_airport,Scotts Airport,64.39250183,-146.8619995,800,NA,US,US-AK,North Pole,no,0AK0,,0AK0,,,
7065,0AK1,small_airport,Anderson Lake Airport,61.6169014,-149.3220062,463,NA,US,US-AK,Wasilla,no,0AK1,,0AK1,,,
45273,0AK2,small_airport,Yentna Bend Strip,61.725556,-150.678611,81,NA,US,US-AK,Willow,no,0AK2,,0AK2,,,
7066,0AK3,small_airport,Parker Lake Airport,62.03590012,-150.4940033,250,NA,US,US-AK,Montana Creek,no,0AK3,,0AK3,,,
7067,0AK5,small_airport,Young Creek Airport,61.355352,-142.731832,1580,NA,US,US-AK,May Creek,no,0AK5,,0AK5,,,
7068,0AK6,small_airport,Victory Airport,61.80339813,-147.9440002,1800,NA,US,US-AK,Victory Bible Camp,no,0AK6,,0AK6,,,
7069,0AK7,small_airport,Bradley Lake Hydroelectri Project Airstrip,59.77610016,-150.9589996,18,NA,US,US-AK,Homer,no,0AK7,,0AK7,,,
7070,0AK8,closed,Pollux Heliport,64.895835,-147.497501,515,NA,US,US-AK,North Pole,no,,,,,,0AK8
7071,0AK9,small_airport,Falcon Lake Strip,61.33259964,-150.0590057,110,NA,US,US-AK,Point Mackenzie,no,0AK9,,0AK9,,,
7072,0AL0,heliport,Huntsville Field,34.68840027,-86.58889771,619,NA,US,US-AL,Huntsville,no,0AL0,,0AL0,,,
7073,0AL1,small_airport,Resort Airport,30.44389915,-87.6568985,97,NA,US,US-AL,Foley,no,0AL1,,0AL1,,,
7074,0AL2,heliport,Clay County Hospital Heliport,33.27500153,-85.83329773,1040,NA,US,US-AL,Ashland,no,0AL2,,0AL2,,,
7075,0AL3,heliport,Hospital Pad Heliport,31.43059921,-86.94029999,295,NA,US,US-AL,Evergreen,no,0AL3,,0AL3,,,
7076,0AL4,heliport,Dekalb Regional Medical Center Heliport,34.442141,-85.755793,870,NA,US,US-AL,Fort Payne,no,0AL4,,0AL4,,,B.M.C. - De Kalb Heliport
7077,0AL5,small_airport,Flomaton Airport,31.03219986,-87.25279999,247,NA,US,US-AL,Flomaton,no,0AL5,,0AL5,,,
7078,0AL6,heliport,D.W. Mcmillian Memorial Hospital Heliport,31.12719917,-87.07330322,155,NA,US,US-AL,Brewton,no,0AL6,,0AL6,,,
7079,0AL7,heliport,Gadsden Regl Medical Center Heliport,34.00830078,-85.96530151,621,NA,US,US-AL,Gadsden,no,0AL7,,0AL7,,,
7080,0AL8,heliport,Brookwood Medical Center Heliport,33.46390152,-86.77310181,763,NA,US,US-AL,Birmingham,no,0AL8,,0AL8,,,
7081,0AL9,small_airport,Wilson Creek Airport,34.84999847,-87.63249969,590,NA,US,US-AL,Florence,no,0AL9,,0AL9,,,
7082,0AR0,heliport,Smh Heliport,36.18149948,-94.13710022,1352,NA,US,US-AR,Springdale,no,0AR0,,0AR0,,,
7083,0AR1,small_airport,Hooterville South Airport,35.09469986,-93.20200348,370,NA,US,US-AR,Centerville,no,0AR1,,0AR1,,,
7084,0AR2,small_airport,Mission Field-Marotti Memorial Airport,35.26679993,-90.35009766,217,NA,US,US-AR,Crawfordsville,no,0AR2,,0AR2,,,
7085,0AR3,closed,Taylor's Air Strip,35.898998,-93.261001,2160,NA,US,US-AR,Deer,no,,,,,,0AR3
7086,0AR4,heliport,Ozarks Community Hospital Heliport,36.40929,-94.46005,1251,NA,US,US-AR,Gravette,no,0AR4,,0AR4,,,Gravette Medical Center Hospital Heliport
7087,0AR5,heliport,Rgnl Medical Center Heliport,35.83620071,-90.70179749,382,NA,US,US-AR,Jonesboro,no,0AR5,,0AR5,,,
7088,0AR6,heliport,Ami National Park Medical Center Heliport,34.48149872,-93.03099823,547,NA,US,US-AR,Hot Springs,no,0AR6,,0AR6,,,
7089,0AR7,small_airport,Yancopin Airport,33.95009995,-91.18119812,150,NA,US,US-AR,Watson,no,0AR7,,0AR7,,,
7090,0AR8,heliport,Howard Memorial Hospital Heliport,33.95009995,-93.85209656,549,NA,US,US-AR,Nashville,no,0AR8,,0AR8,,,
7091,0AR9,heliport,Eureka Springs Hospital Heliport,36.40010071,-93.74349976,1540,NA,US,US-AR,Eureka Springs,no,0AR9,,0AR9,,,
7092,0AZ0,heliport,Arizona Heart Hospital Heliport,33.48130035,-112.0400009,1161,NA,US,US-AZ,Phoenix,no,0AZ0,,0AZ0,,,
7093,0AZ1,small_airport,Taylor Field,32.30089951,-111.3239975,2130,NA,US,US-AZ,Marana,no,0AZ1,,0AZ1,,,
7094,0AZ2,small_airport,Western Sky Airport,33.77809906,-113.6419983,1930,NA,US,US-AZ,Salome,no,0AZ2,,0AZ2,,,
7095,0AZ4,small_airport,Flying Bucket Ranch Airport,32.9822998,-112.2870026,1505,NA,US,US-AZ,Mobile,no,0AZ4,,0AZ4,,,
7096,0AZ5,small_airport,Castle Well Airport,33.86589813,-112.6029968,2080,NA,US,US-AZ,Morristown,no,0AZ5,,0AZ5,,,
7097,0AZ6,heliport,St Joseph's Hospital Heliport,33.4817009,-112.0770035,1213,NA,US,US-AZ,Phoenix,no,0AZ6,,0AZ6,,,
7098,0AZ7,heliport,Sunstate Heliport,33.44369888,-111.9629974,1180,NA,US,US-AZ,Phoenix,no,0AZ7,,0AZ7,,,
7099,0B2,small_airport,Brewer Airport,44.76369858,-68.76779938,124,NA,US,US-ME,Brewer,no,0B2,,0B2,,,
7100,0B7,small_airport,Warren-Sugarbush Airport,44.11669922,-72.82710266,1470,NA,US,US-VT,Warren,no,0B7,,0B7,,http://en.wikipedia.org/wiki/Warren-Sugarbush_Airport,
7101,0C1,small_airport,Triple R Airport,39.4878006,-94.78050232,1000,NA,US,US-MO,Dearborn,no,0C1,,0C1,,,
7102,0C2,small_airport,Hinckley Airport,41.77090073,-88.70339966,760,NA,US,US-IL,Hinckley,no,0C2,,0C2,,,
7103,0C5,small_airport,Canadian Lakes Airport,43.57640076,-85.2806015,960,NA,US,US-MI,Mecosta,no,0C5,,0C5,,,
7104,0C7,small_airport,Grandpas' Farm Mendota Airport,41.521999,-89.132599,727,NA,US,US-IL,Mendota,no,IL22,,IL22,,,0C7
7105,0C8,small_airport,Cushing Field Ltd Airport,41.51950073,-88.60559845,640,NA,US,US-IL,Newark,no,0C8,,0C8,,,
7106,0C9,heliport,Coach & Paddock Heliport,40.63819885,-74.97570038,320,NA,US,US-NJ,Clinton,no,0C9,,0C9,,,
7107,0CA0,closed,Drew Medical Center Heliport,33.923302,-118.241997,180,NA,US,US-CA,Los Angeles,no,,,,,,0CA0
7108,0CA1,closed,Northside Airpark,34.98830032,-120.4580002,190,NA,US,US-CA,Santa Maria,no,,,,,,0CA1
7109,0CA2,heliport,Va Greater Los Angeles Health Care Center Heliport,34.04919815,-118.4560013,294,NA,US,US-CA,West Los Angeles,no,0CA2,,0CA2,,,
7110,0CA3,small_airport,Crawford Airport,34.58750153,-120.0130005,570,NA,US,US-CA,Santa Ynez,no,0CA3,,0CA3,,,
7111,0CA4,small_airport,Shepherd Ranch Airport,34.62220001,-120.0650024,660,NA,US,US-CA,Santa Ynez,no,0CA4,,0CA4,,,
7112,0CA5,small_airport,Hoffman Private Airport,33.14310074,-116.7450027,3100,NA,US,US-CA,Santa Ysabel,no,0CA5,,0CA5,,,
7113,0CA6,small_airport,Emory Ranch Airport,32.7494444,-116.0161111,480,NA,US,US-CA,Ocotillo,no,0CA6,,0CA6,,,
7114,0CA7,heliport,Boeing Seal Beach (Rooftop) Heliport,33.75699997,-118.0879974,158,NA,US,US-CA,Seal Beach,no,0CA7,,0CA7,,,
7115,0CA8,small_airport,Ward Ranch Airport,33.42779922,-116.8430023,2500,NA,US,US-CA,Aguanga,no,0CA8,,0CA8,,,
7116,0CA9,small_airport,Blech Ranch Airport,35.59500122,-120.3389969,1140,NA,US,US-CA,Shandon,no,0CA9,,0CA9,,,
7117,0CD0,heliport,Delta County Memorial Hospital Heliport,38.745155,-108.047973,5000,NA,US,US-CO,Delta,no,0CD0,,0CD0,,,
7118,0CD1,heliport,Colorado Plains Medical Center Heliport,40.2610917,-103.7963389,4356,NA,US,US-CO,Fort Morgan,no,0CD1,,0CD1,,,
7119,0CD2,small_airport,Foxx Valley Airport,38.65250015,-104.2340012,5800,NA,US,US-CO,Yoder,no,0CD2,,0CD2,,,
7120,0CD3,heliport,Branch's Heliport,40.34799957,-104.5279999,4635,NA,US,US-CO,Kersey,no,0CD3,,0CD3,,,
7121,0CD4,heliport,Kauffman Heliport,40.14630127,-104.887001,5120,NA,US,US-CO,Denver,no,0CD4,,0CD4,,,
7122,0CD5,small_airport,Pinon Canyon Airport,37.4905014,-104.1439972,5686,NA,US,US-CO,Trinidad,no,0CD5,,0CD5,,,
7123,0CD6,heliport,Exempla Good Samaritan Heliport,39.97169876,-105.0849991,5204,NA,US,US-CO,Lafayette,no,0CD6,,0CD6,,,
7124,0CD7,small_airport,Fox Hole Airport,40.00469971,-105.0719986,5135,NA,US,US-CO,Lafayette,no,0CD7,,0CD7,,,
7125,0CD8,heliport,Prowers Medical Center Heliport,38.07109833,-102.6090012,3575,NA,US,US-CO,Lamar,no,0CD8,,0CD8,,,
7126,0CD9,heliport,Swedish S.W. Medical Heliport,39.60309982,-105.0910034,5563,NA,US,US-CO,Littleton,no,0CD9,,0CD9,,,
7127,0CL0,small_airport,Yosemite Hidden Lake Ranch Airport,37.11800003,-119.913002,500,NA,US,US-CA,Raymond,no,0CL0,,0CL0,,,
7128,0CL1,small_airport,Krey Field Airport,34.56940079,-117.5559998,3042,NA,US,US-CA,Adelanto,no,0CL1,,0CL1,,,
7129,0CL2,heliport,Parking Lot Heliport,32.59389877,-117.0849991,,NA,US,US-CA,Chula Vista,no,0CL2,,0CL2,,,
7130,0CL3,small_airport,John Nichol's Field Airport,32.6330986,-116.8929977,490,NA,US,US-CA,Chula Vista,no,0CL3,,0CL3,,,
7131,0CL4,heliport,Glen Fed Heliport,34.15719986,-118.2549973,770,NA,US,US-CA,Glendale,no,0CL4,,0CL4,,,
7132,0CL5,heliport,The Atrium Heliport,33.67060089,-117.8580017,46,NA,US,US-CA,Irvine,no,0CL5,,0CL5,,,
7133,0CL6,small_airport,Bohunk's Airpark,34.69469833,-118.2829971,2410,NA,US,US-CA,Lancaster,no,0CL6,,0CL6,,,
7134,0CL7,heliport,Good Samaritan Hospital Heliport,34.054901,-118.264967,473,NA,US,US-CA,Los Angeles,no,0CL7,,0CL7,,,
7135,0CL8,small_airport,Tera Ultralightport,35.59130096,-117.6340027,2510,NA,US,US-CA,Ridgecrest,no,0CL8,,0CL8,,,
7136,0CL9,heliport,Sce San Jacinto Valley Service Center Heliport,33.74110031,-117.151001,1482,NA,US,US-CA,Romoland,no,0CL9,,0CL9,,,
322308,0CN1,small_airport,Fiorini Ranch Airport,37.452178,-120.764758,140,NA,US,US-CA,Delhi,no,0CN1,,0CN1,,,
324643,0CN2,small_airport,Sutter Butte Dusters Airport,39.228622,-121.688265,67,NA,US,US-CA,Live Oak,no,0CN2,,0CN2,,,
7137,0CO0,heliport,Longmont United Hospital Heliport,40.17890167,-105.1259995,5047,NA,US,US-CO,Longmont,no,0CO0,,0CO0,,,
7138,0CO1,small_airport,Dave's Airport,40.03329849,-105.1240005,5170,NA,US,US-CO,Louisville,no,0CO1,,0CO1,,,
7139,0CO2,small_airport,Crested Butte Airpark,38.851918,-106.928341,8980,NA,US,US-CO,Crested Butte,no,0CO2,CSE,0CO2,,,Buckhorn Ranch
7140,0CO3,closed,Greggs Nr 1 Airport,39.8894,-104.544997,5373,NA,US,US-CO,Bennett,no,,,,,,0CO3
7141,0CO4,heliport,Geo-Seis Helicopters Heliport,40.58990097,-105.0459976,4935,NA,US,US-CO,Fort Collins,no,0CO4,,0CO4,,,
7142,0CO5,small_airport,Chenoweth Airport,39.83330154,-103.5899963,4697,NA,US,US-CO,Last Chance,no,0CO5,,0CO5,,,
7143,0CO6,small_airport,Flying M & M Ranch Airport,38.2193985,-108.2129974,8000,NA,US,US-CO,Norwood,no,0CO6,,0CO6,,,
7144,0CO7,heliport,Century Helicopters Heliport,40.58549881,-105.0400009,4935,NA,US,US-CO,Fort Collins,no,0CO7,,0CO7,,,
7145,0CO8,small_airport,Cartwheel Airport,40.20830154,-105.0130005,5010,NA,US,US-CO,Mead,no,0CO8,,0CO8,,,
7146,0CO9,small_airport,Van Treese Airport,37.65829849,-106.0339966,7613,NA,US,US-CO,Monte Vista,no,0CO9,,0CO9,,,
7147,0CT0,heliport,Sharon Hospital Heliport,41.88119888,-73.48100281,640,NA,US,US-CT,Sharon,no,0CT0,,0CT0,,,
7148,0CT1,heliport,Bristol-Myers Squibb Company Heliport,41.48479843,-72.7562027,350,NA,US,US-CT,Wallingford,no,0CT1,,0CT1,,,
7149,0CT2,heliport,Windham Hospital Heliport,41.71699905,-72.22589874,330,NA,US,US-CT,Willimantic,no,0CT2,,0CT2,,,
7150,0CT3,heliport,N B G H Heliport,41.66159821,-72.78790283,431,NA,US,US-CT,New Britain,no,0CT3,,0CT3,,,
7151,0CT4,heliport,Burke Heliport,41.50619888,-72.93979645,400,NA,US,US-CT,Prospect,no,0CT4,,0CT4,,,
7152,0CT5,heliport,St Francis Hospital Heliport,41.7745018,-72.6989975,184,NA,US,US-CT,Hartford,no,0CT5,,0CT5,,,
7153,0CT6,heliport,Middletown Heliport,41.59680176,-72.70449829,113,NA,US,US-CT,Middletown,no,0CT6,,0CT6,,,
7154,0CT7,heliport,Bridgeport Hospital Heliport,41.18840027,-73.16619873,80,NA,US,US-CT,Bridgeport,no,0CT7,,0CT7,,,
7155,0CT8,heliport,Danbury Hospital Heliport,41.4056015,-73.44470215,510,NA,US,US-CT,Danbury,no,0CT8,,0CT8,,,
7156,0CT9,heliport,Hartford Hospital Heliport,41.75450134,-72.67870331,211,NA,US,US-CT,Hartford,no,0CT9,,0CT9,,,
7157,0D6,small_airport,Wilber Municipal Airport,40.47499847,-96.9878006,1400,NA,US,US-NE,Wilber,no,0D6,,0D6,,,
7158,0D7,small_airport,Ada Airport,40.79059982,-83.82910156,949,NA,US,US-OH,Ada,no,0D7,,0D7,,,
315634,0D9,small_airport,Air Park North,44.958,-84.9587,1170,NA,US,US-MI,Alba,no,MI30,,MI30,http://airparknorth.net/?page_id=6,,"0D9, 24MI"
7159,0,small_airport,Corydon Airport,40.75450134,-93.24130249,1020,NA,US,US-IA,Corydon,no,0,,0,,,
7160,0FA0,heliport,Doral Resort & Country Club Heliport,25.81290054,-80.33889771,6,NA,US,US-FL,Miami,no,0FA0,,0FA0,,,
7161,0FA1,small_airport,Ott's Landing Airport,27.3039,-81.880403,65,NA,US,US-FL,Arcadia,no,0FA1,,0FA1,,,Frierson Grove Airport
45349,0FA2,heliport,Doctors Memorial Hospital #2 Heliport,30.119753,-83.592732,57,NA,US,US-FL,Perry,no,0FA2,,0FA2,,,
7162,0FD0,small_airport,The 2A Ranch Airport,29.2675,-81.230103,40,NA,US,US-FL,Ormond Beach,no,0FD0,,0FD0,,,Big 'G' Airport
7163,0FD1,heliport,Panhandle Helicopter Llc Heliport,30.21409988,-85.87220001,20,NA,US,US-FL,Panama City Beach,no,0FD1,,0FD1,,,
7164,0FD2,heliport,Dolphin Stadium Heliport,25.95999264,-80.2370026,8,NA,US,US-FL,Miami,no,0FD2,,0FD2,,,
7165,0FD3,small_airport,Dugger Field,30.49640083,-86.09380341,70,NA,US,US-FL,Freeport,no,0FD3,,0FD3,,,
7166,0FD4,heliport,Cloverleaf Farms Ii Inc. Heliport,29.3614006,-82.20819855,100,NA,US,US-FL,Reddick,no,0FD4,,0FD4,,,
7167,0FD5,small_airport,Breezy Knoll Airport,30.82019997,-86.3443985,235,NA,US,US-FL,Defuniak Springs,no,0FD5,,0FD5,,,
7169,0FD9,small_airport,Joy Farms Airport,30.65209961,-86.10939789,290,NA,US,US-FL,Defuniak Springs,no,0FD9,,0FD9,,,
7170,0FL0,small_airport,Harper's Fly-In Ranch Airport,26.73060036,-81.16390228,30,NA,US,US-FL,Clewiston,no,0FL0,,0FL0,,,
7171,0FL1,small_airport,Thompson Airfield,29.98329926,-82.83560181,110,NA,US,US-FL,Branford,no,0FL1,,0FL1,,,
7173,0FL3,heliport,Old Town Ems Heliport,29.60280037,-82.98169708,25,NA,US,US-FL,Old Town,no,0FL3,,0FL3,,,
7174,0FL4,heliport,Jackson Heliport,30.70499992,-85.37830353,110,NA,US,US-FL,Alford,no,0FL4,,0FL4,,,
7176,0FL6,closed,Stanchester Airport,27.805901,-82.140098,94,NA,US,US-FL,Lithia,no,,,,,,0FL6
7177,0FL7,heliport,Wcpx Tv-6 Heliport,28.61030006,-81.41940308,114,NA,US,US-FL,Orlando,no,0FL7,,0FL7,,,
7179,0FL9,small_airport,Mc Daniel Ranch Inc. Airport,26.39389992,-81.02310181,18,NA,US,US-FL,Clewiston,no,0FL9,,0FL9,,,
7180,0G0,small_airport,North Buffalo Suburban Airport,43.103199,-78.7033,588,NA,US,US-NY,Lockport,no,K0G0,,0G0,,,
7182,0GA0,small_airport,Halls Flying Ranch Airport,33.35620117,-84.36710358,800,NA,US,US-GA,Hampton,no,0GA0,,0GA0,,,
7183,0GA1,small_airport,Mustang Field,34.47790146,-82.89710236,693,NA,US,US-GA,Hartwell,no,0GA1,,0GA1,,,
7184,0GA2,small_airport,"Airnautique, Inc. Airport",34.37789917,-82.9457016,720,NA,US,US-GA,Hartwell,no,0GA2,,0GA2,,,
7185,0GA3,small_airport,Ayresouth Airport,33.77009964,-85.06079865,1287,NA,US,US-GA,Temple,no,0GA3,,0GA3,,,
7186,0GA4,small_airport,Paradise Falls Airport,33.81290054,-83.50569916,736,NA,US,US-GA,High Shoals,no,0GA4,,0GA4,,,
7187,0GA5,heliport,Big Canoe Heliport,34.45479965,-84.28910065,1475,NA,US,US-GA,Jasper,no,0GA5,,0GA5,,,
7188,0GA6,small_airport,Sunset Strip,33.73339844,-83.81880188,780,NA,US,US-GA,Jersey,no,0GA6,,0GA6,,,
7189,0GA7,small_airport,Hickory Level Airfield,33.6833992,-84.99990082,1080,NA,US,US-GA,Temple,no,0GA7,,0GA7,,,
7190,0GA8,small_airport,Paso Fino Farm Airport,30.88710022,-83.41600037,200,NA,US,US-GA,Valdosta,no,0GA8,,0GA8,,,
7191,0GA9,small_airport,Roberta Industrial Park Airport,32.71390152,-84.02749634,505,NA,US,US-GA,Roberta,no,0GA9,,0GA9,,,
7192,0GE0,small_airport,Pinewood Airport,33.78210068,-84.80079651,1085,NA,US,US-GA,Douglasville,no,0GE0,,0GE0,,,
7193,0GE1,small_airport,Crystal Lake Airpark,31.66550064,-83.44709778,327,NA,US,US-GA,Irwinville,no,0GE1,,0GE1,,,
7194,0GE3,small_airport,Lookout Mountain Airport,34.90470123,-85.45970154,563,NA,US,US-GA,Trenton,no,0GE3,,0GE3,,,
7195,0GE4,small_airport,Pecan Patch Airstrip,33.33140182,-84.26670074,860,NA,US,US-GA,Sunnyside,no,0GE4,,0GE4,,,
7196,0GE5,small_airport,Mountain Airpark,34.5617981,-83.71350098,1438,NA,US,US-GA,Cleveland,no,0GE5,,0GE5,,,
7197,0GE7,small_airport,Carpenter Airport,33.52030182,-82.37249756,450,NA,US,US-GA,Appling,no,0GE7,,0GE7,,,
7198,0GE9,small_airport,Pegasus Ranch Airport,32.69390106,-81.79859924,230,NA,US,US-GA,Rocky Ford,no,0GE9,,0GE9,,,
7199,0H7,small_airport,Kahoka Municipal Airport,40.42160034,-91.70629883,700,NA,US,US-MO,Kahoka,no,0H7,,0H7,,,
7200,0I2,small_airport,Brazil Clay County Airport,39.47669983,-87.09970093,645,NA,US,US-IN,Brazil,no,0I2,,0I2,,,
7201,0IA0,heliport,Knoxville Area Community Hospital Heliport,41.31689835,-93.09600067,927,NA,US,US-IA,Knoxville,no,0IA0,,0IA0,,,
7202,0IA1,heliport,St Anthony Regional Hospital Heliport,42.05830002,-94.86830139,1300,NA,US,US-IA,Carroll,no,0IA1,,0IA1,,,
7203,0IA2,heliport,Audubon County Memorial Hospital Heliport,41.71549988,-94.93859863,1320,NA,US,US-IA,Audubon,no,0IA2,,0IA2,,,
7204,0IA3,small_airport,Hawkeye Airport,42.43470001,-92.32800293,883,NA,US,US-IA,Waterloo,no,0IA3,,0IA3,,,
7205,0IA4,small_airport,Sharar Field,41.03340149,-91.05010223,700,NA,US,US-IA,Mediapolis,no,0IA4,,0IA4,,,
7206,0IA5,small_airport,Moore Private Airport,40.87220001,-93.26270294,1060,NA,US,US-IA,Millerton,no,0IA5,,0IA5,,,
7207,0IA6,small_airport,Rinehart Airport,41.65969849,-92.28990173,920,NA,US,US-IA,Victor,no,0IA6,,0IA6,,,
7208,0IA7,heliport,Cromwell Heliport,41.03889847,-94.46690369,1300,NA,US,US-IA,Cromwell,no,0IA7,,0IA7,,,
7209,0IA8,small_airport,Hannen Airport,42.22800064,-91.75099945,925,NA,US,US-IA,Center Point,no,0IA8,,0IA8,,,
7210,0IA9,heliport,Army Reserve Heliport,40.83340073,-91.30010223,725,NA,US,US-IA,Middleton,no,0IA9,,0IA9,,,
7211,0ID0,small_airport,South Fork Ranch Airport,43.60639954,-115.1070023,4861,NA,US,US-ID,Featherville,no,0ID0,,0ID0,,,
7212,0ID1,small_airport,Ziggy's Airport,42.64120102,-114.6050034,3225,NA,US,US-ID,Filer,no,0ID1,,0ID1,,,
7213,0ID2,small_airport,Flying Joseph Ranch Airport,44.44290161,-113.7730026,5600,NA,US,US-ID,May,no,0ID2,,0ID2,,,
7214,0ID3,small_airport,Coyote Run Airport,43.07580185,-115.6729965,3150,NA,US,US-ID,Mountain Home,no,0ID3,,0ID3,,,
7215,0ID4,small_airport,Black Butte Ranch Airport,43.04769897,-114.4700012,4020,NA,US,US-ID,Shoshone,no,0ID4,,0ID4,,,
7216,0ID5,small_airport,Ez Lope Ranch Airport,43.05310059,-116.461998,3130,NA,US,US-ID,Oreana,no,0ID5,,0ID5,,,
7217,0ID6,heliport,Steele Memorial Heliport,45.173791,-113.891423,4004,NA,US,US-ID,Salmon,no,67ID,,67ID,,,0ID6
45394,0ID7,small_airport,Z X Ranch Airport,43.230308,-116.763192,3820,NA,US,US-ID,Murphy,no,0ID7,,0ID7,,,
45387,0ID8,small_airport,Pinnacle Airport,45.775197,-116.178475,3800,NA,US,US-ID,Grangeville,no,0ID8,,0ID8,,,
329280,0ID9,small_airport,Corral Creek Airport,46.785278,-116.471131,2895,NA,US,US-ID,Helmer,no,0ID9,,0ID9,,,
7218,0II0,small_airport,Chuck's Airport,40.25999832,-85.25330353,955,NA,US,US-IN,Albany,no,0II0,,0II0,,,
7219,0II1,small_airport,Unsicker Airport,40.42810059,-86.15329742,816,NA,US,US-IN,Bremen,no,0II1,,0II1,,,
7220,0II2,small_airport,Creighton Airport,41.45729828,-86.12439728,820,NA,US,US-IN,Bremen,no,0II2,,0II2,,,
7221,0II3,closed,Miller Strip,40.6278,-86.037804,810,NA,US,US-IN,Bunker Hill,no,,,,,,0II3
7222,0II5,small_airport,Marshall Field,40.65950012,-86.85720062,705,NA,US,US-IN,Chalmers,no,0II5,,0II5,,,
7223,0II6,small_airport,Kropf Airport,41.64310074,-85.82969666,810,NA,US,US-IN,Goshen,no,0II6,,0II6,,,
7224,0II7,small_airport,Frost Field,39.79560089,-85.78610229,900,NA,US,US-IN,Greenfield,no,0II7,,0II7,,,
7225,0II8,small_airport,Sutton's Field,41.32479858,-87.47589874,740,NA,US,US-IN,Lowell,no,0II8,,0II8,,,
7226,0II9,small_airport,Winters Airport,39.53419876,-86.57720184,755,NA,US,US-IN,Hall,no,0II9,,0II9,,,
7227,0IL0,heliport,Hamilton Memorial Hospital Heliport,38.08670044,-88.53890228,440,NA,US,US-IL,Mc Leansboro,no,0IL0,,0IL0,,,
7228,0IL1,heliport,Loyola University Medical Center Heliport,41.86090088,-87.83640289,623,NA,US,US-IL,Broadview,no,0IL1,,0IL1,,,
45950,0IL2,small_airport,Griffin Airport,38.803056,-88.997778,541,NA,US,US-IL,Alma,no,0IL2,,0IL2,,,
7229,0IL3,small_airport,Flying B Ranch Airport,40.1570015,-87.67449951,696,NA,US,US-IL,Danville,no,0IL3,,0IL3,,,
7230,0IL4,heliport,Good Samaritan Hospital Heliport,41.81890106,-88.00779724,772,NA,US,US-IL,Downers Grove,no,0IL4,,0IL4,,,
323339,0IL5,heliport,OSF St Luke Medical Center Heliport,41.221865,-89.947788,849,NA,US,US-IL,Kewanee,no,0IL5,,0IL5,,,
7231,0IL6,heliport,Kishwaukee Community Hospital Heliport,41.96310043,-88.71730042,852,NA,US,US-IL,De Kalb,no,0IL6,,0IL6,,,
7232,0IL8,small_airport,Walter Airport,41.87250137,-88.72370148,890,NA,US,US-IL,De Kalb,no,0IL8,,0IL8,,,
7233,0IL9,small_airport,Jack W. Watson Airport,41.85480118,-88.78730011,880,NA,US,US-IL,De Kalb,no,0IL9,,0IL9,,,
7234,0IN1,small_airport,Snider Field,38.5,-87.59590149,400,NA,US,US-IN,Decker,no,0IN1,,0IN1,,,
7235,0IN2,small_airport,The Lazy K Airport,40.82780075,-85.08609772,835,NA,US,US-IN,Tocsin,no,0IN2,,0IN2,,,
7236,0IN3,small_airport,Graves Landing Strip,41.11669922,-86.66670227,704,NA,US,US-IN,Winamac,no,0IN3,,0IN3,,,
7237,0IN4,small_airport,Air Park Field,41.12779999,-84.94719696,750,NA,US,US-IN,Woodburn,no,0IN4,,0IN4,,,
7238,0IN5,small_airport,Byrne Field,38.32899857,-86.03359985,800,NA,US,US-IN,Byrneville,no,0IN5,,0IN5,,,
7239,0IN7,closed,Roto-Whirl/Holiday Heliport,39.922501,-86.226097,875,NA,US,US-IN,Indianapolis,no,,,,,,0IN7
7240,0IN8,closed,Roto-Whirl/Vantage Heliport,39.837299,-86.118597,726,NA,US,US-IN,Indianapolis,no,,,,,,0IN8
7241,0IN9,small_airport,Parrish Airport,37.99309921,-87.95140076,390,NA,US,US-IN,Mount Vernon,no,0IN9,,0IN9,,,
7242,0IS0,heliport,Trinity Medical Center West Heliport,41.48109818,-90.5714035,664,NA,US,US-IL,Rock Island,no,0IS0,,0IS0,,,
7243,0IS2,heliport,Evanston/Glenbrook Heliport,42.0931015,-87.8526001,678,NA,US,US-IL,Glenview,no,0IS2,,0IS2,,,
7244,0IS3,small_airport,Cady Aerial RLA Restricted Landing Area,41.66080093,-89.69360352,630,NA,US,US-IL,Deer Grove,no,0IS3,,0IS3,,,
7245,0IS4,small_airport,Dawson Farms Airport,39.76250076,-88.67150116,670,NA,US,US-IL,Lovington,no,0IS4,,0IS4,,,
7246,0IS6,heliport,Dongola Heliport,37.36560059,-89.16359711,383,NA,US,US-IL,Dongola,no,0IS6,,0IS6,,,
7247,0IS8,heliport,Blessing Hospital At 11th St Heliport,39.93640137,-91.39900208,650,NA,US,US-IL,Quincy,no,0IS8,,0IS8,,,
7248,0IS9,heliport,Bernardin Heliport,41.70840073,-89.20290375,830,NA,US,US-IL,West Brooklyn,no,0IS9,,0IS9,,,
7249,0J0,small_airport,Abbeville Municipal Airport,31.60020065,-85.23880005,468,NA,US,US-AL,Abbeville,no,0J0,,0J0,,,
7250,0J8,small_airport,Flying Ten Airport,29.61800003,-82.50869751,85,NA,US,US-FL,Archer,no,0J8,,0J8,,,
7251,0K6,small_airport,Dobie's Airport,36.178496,-95.580468,610,NA,US,US-OK,Inola,no,,,0K6,,,
7252,0KS0,small_airport,J V Ranch Airport,38.63330078,-95.9253006,1180,NA,US,US-KS,Osage City,no,0KS0,,0KS0,,,
7253,0KS2,closed,Kellie Mann Airfield,38.560001,-95.309097,1045,NA,US,US-KS,Ottawa,no,,,,,,0KS2
7254,0KS3,small_airport,Camp Chippewa Airport,38.56669998,-95.36689758,1120,NA,US,US-KS,Ottawa,no,0KS3,,0KS3,,,
7255,0KS4,small_airport,Norris Airport,38.807239,-95.370056,1065,NA,US,US-KS,Lawrence,no,0KS4,,0KS4,,,
7256,0KS6,small_airport,Kendrigan Airport,37.45220184,-97.31780243,1240,NA,US,US-KS,Peck,no,0KS6,,0KS6,,,
7257,0KS7,small_airport,Mono Aircraft Airport,37.69279861,-97.88639832,1450,NA,US,US-KS,Cheney,no,0KS7,,0KS7,,,
7258,0KS8,small_airport,Pearce Field,37.38249969,-95.37470245,950,NA,US,US-KS,Parsons,no,0KS8,,0KS8,,,
7259,0KS9,small_airport,Lmn 120 Airport,37.51589966,-96.9197998,1330,NA,US,US-KS,Douglas,no,0KS9,,0KS9,,,
7260,0KY0,small_airport,Owen Air Park,38.62279892,-84.77890015,890,NA,US,US-KY,Owenton,no,0KY0,,0KY0,,,
7261,0KY1,small_airport,Arnemann Farms Airport,36.7655983,-86.61830139,504,NA,US,US-KY,Franklin,no,0KY1,,0KY1,,,
7262,0KY2,heliport,Mgt Station 2105 Heliport,37.50559998,-86.83750153,540,NA,US,US-KY,Hartford,no,0KY2,,0KY2,,,
7263,0KY3,closed,Tennessee Gas Heliport,38.561404,-83.952795,604,NA,US,US-KY,Load,no,,,,,,0KY3
7264,0KY4,small_airport,Cambron Field,37.56439972,-87.08190155,427,NA,US,US-KY,Owensboro,no,0KY4,,0KY4,,,
7265,0KY5,small_airport,Falin Landing Strip,36.8125,-86.375,600,NA,US,US-KY,Bowling Green,no,0KY5,,0KY5,,,
7266,0KY6,heliport,Tennessee Gas Heliport,38.2682991,-82.57749939,560,NA,US,US-KY,Burnaugh,no,0KY6,,0KY6,,,
7267,0KY7,small_airport,Clinton-Hickman County Airport,36.63610077,-88.99859619,360,NA,US,US-KY,Clinton,no,0KY7,,0KY7,,,
7268,0KY8,closed,Sky Airport,37.117199,-83.736099,850,NA,US,US-KY,Manchester,no,,,,,,0KY8
7269,0KY9,heliport,Pine Mountain Aero Heliport,37.11360168,-82.8035965,1300,NA,US,US-KY,Whitesburg,no,0KY9,,0KY9,,,
7270,0L4,small_airport,Lida Junction Airport,37.4858017,-117.1910019,4684,NA,US,US-NV,Goldfield,no,0L4,,0L4,,http://en.wikipedia.org/wiki/Lida_Junction_Airport,
7271,0L5,small_airport,Goldfield Airport,37.722751,-117.236368,5680,NA,US,US-NV,Goldfield,no,NV50,,NV50,,http://en.wikipedia.org/wiki/Goldfield_Airport,0L5
7272,0L6,heliport,Winn Parish Medical Center Heliport,31.92320061,-92.64569855,140,NA,US,US-LA,Winnfield,no,0L6,,0L6,,,
7273,0LA0,heliport,West Hackberry Heliport,30.00849915,-93.40019989,10,NA,US,US-LA,Hackberry,no,0LA0,,0LA0,,,
7274,0LA1,small_airport,Double H Ranch Airport,30.22940063,-90.9733963,15,NA,US,US-LA,Gonzales,no,0LA1,,0LA1,,,
7275,0LA2,small_airport,Don Babin-Private Airport,30.27799988,-90.96320343,17,NA,US,US-LA,Gonzales,no,0LA2,,0LA2,,,
7276,0LA3,small_airport,Belcher Airpatch Airport,32.7492981,-93.87349701,280,NA,US,US-LA,Belcher,no,0LA3,,0LA3,,,
7277,0LA4,heliport,North Caddo Medical Center Heliport,32.86410141,-93.98899841,200,NA,US,US-LA,Vivian,no,0LA4,,0LA4,,,
7278,0LA5,heliport,Conoco Inc Heliport,29.25799942,-89.96369934,3,NA,US,US-LA,Grand Isle,no,0LA5,,0LA5,,,
7279,0LA6,closed,Freeport Sulphur Heliport,29.2586,-89.959198,3,NA,US,US-LA,Grand Isle,no,,,,,,0LA6
7280,0LA7,heliport,Exxon Heliport,29.25580025,-89.96759796,6,NA,US,US-LA,Grand Isle,no,0LA7,,0LA7,,,
7281,0LA8,heliport,Jackson Parish Hospital Heliport,32.25170135,-92.71279907,183,NA,US,US-LA,Jonesboro,no,0LA8,,0LA8,,,
7282,0LA9,small_airport,Rebel Field,30.5862999,-90.8615036,74,NA,US,US-LA,Watson,no,0LA9,,0LA9,,,
7283,0LL0,small_airport,Kaufield Airport,42.26470184,-88.73000336,783,NA,US,US-IL,Belvidere,no,0LL0,,0LL0,,,
7284,0LL1,small_airport,Jerseyville Aviation Inc Airport,39.09420013,-90.31340027,604,NA,US,US-IL,Jerseyville,no,0LL1,,0LL1,,,
7285,0LL2,small_airport,Murk's Strip,40.73889923,-90.38069916,700,NA,US,US-IL,St. Augustine,no,0LL2,,0LL2,,,
7286,0LL3,small_airport,Koenig Airport,39.05500031,-90.34210205,614,NA,US,US-IL,Jerseyville,no,0LL3,,0LL3,,,
7287,0LL4,small_airport,Flaherty Field,41.4192009,-89.12310028,664,NA,US,US-IL,La Salle,no,0LL4,,0LL4,,,
7288,0LL5,small_airport,Busboom RLA Restricted Landing Area,40.11000061,-88.07839966,675,NA,US,US-IL,St Joseph,no,0LL5,,0LL5,,,
7289,0LL6,small_airport,Gord Airport,41.69839859,-88.60759735,710,NA,US,US-IL,Sandwich,no,0LL6,,0LL6,,,
7290,0LL7,heliport,Valley West Hospital Heliport,41.657994,-88.621297,670,NA,US,US-IL,Sandwich,no,0LL7,,0LL7,,,Hospital Heliport
7291,0LL9,closed,Savanna Army Depot Helipad,42.183399,-90.255698,650,NA,US,US-IL,Savanna,no,,,,,,0LL9
7292,0LS0,small_airport,Theriot Field,29.74970055,-90.7358017,13,NA,US,US-LA,Thibodaux,no,0LS0,,0LS0,,,
7294,0LS2,heliport,Evergreen Fourchon Heliport,29.11639977,-90.20220184,6,NA,US,US-LA,Golden Meadow,no,0LS2,,0LS2,,,
7295,0LS3,heliport,Evergreen Venice Heliport,29.29669952,-89.37439728,,NA,US,US-LA,Venice,no,0LS3,,0LS3,,,
7296,0LS4,closed,Buller's Airstrip,30.808701,-92.188003,47,NA,US,US-LA,Bunkie,no,,,,,,0LS4
7297,0LS5,small_airport,Trahan Ultralightport,30.30690002,-92.12979889,40,NA,US,US-LA,Cankton,no,0LS5,,0LS5,,,
7298,0LS6,small_airport,Dufour Airport,30.78770065,-92.05039978,42,NA,US,US-LA,Morrow,no,0LS6,,0LS6,,,
7299,0LS7,small_airport,Morgan Field,30.6128006,-91.48419952,36,NA,US,US-LA,New Roads,no,0LS7,,0LS7,,,
7300,0LS8,small_airport,Lonesome Dove Airfield,30.28580093,-92.94129944,34,NA,US,US-LA,Woodlawn,no,0LS8,,0LS8,,,
7301,0LS9,small_airport,Huenefeld Airport,32.50429916,-91.98210144,72,NA,US,US-LA,Monroe,no,0LS9,,0LS9,,,
7302,0MA1,heliport,Massachusetts General Hospital Heliport,42.36370087,-71.06890106,214,NA,US,US-MA,Boston,no,0MA1,,0MA1,,,
7303,0MA2,heliport,Healthalliance Hospital-Leominster Heliport,42.54090118,-71.76280212,450,NA,US,US-MA,Leominster,no,0MA2,,0MA2,,,
7304,0MA3,heliport,Reh Heliport,41.78739929,-71.23179626,100,NA,US,US-MA,Rehoboth,no,0MA3,,0MA3,,,
7305,0MA4,heliport,Boston Medical Center Hospital Heliport,42.33359909,-71.07170105,19,NA,US,US-MA,Boston,no,0MA4,,0MA4,,,
7306,0MA5,heliport,Brockton Usar Center Heliport,42.05590057,-71.05590057,85,NA,US,US-MA,Brockton,no,0MA5,,0MA5,,,
7307,0MA6,heliport,Wbz Heliport,42.36510086,-71.13259888,9,NA,US,US-MA,Boston,no,0MA6,,0MA6,,,
7308,0MA8,heliport,Textron/Everett Heliport,42.404496,-71.070602,40,NA,US,US-MA,Everett,no,,,,,,0MA8
7309,0MA9,heliport,Lleia Kyle O'Meara Heliport,42.50310135,-71.90840149,1230,NA,US,US-MA,Westminster,no,0MA9,,0MA9,,,
7310,0MD0,heliport,Baltimore Washington Medical Center Heliport,39.13759995,-76.62329865,77,NA,US,US-MD,Glen Burnie,no,0MD0,,0MD0,,,
7311,0MD1,small_airport,Taylor Field,39.18730164,-75.79270172,75,NA,US,US-MD,Sudlersville,no,0MD1,,0MD1,,,
7312,0MD2,small_airport,Squier Landing Airport,38.287781,-76.867575,16,NA,US,US-MD,Cobb Island,no,,,,,,0MD2
7313,0MD3,heliport,The Johns Hopkins Hospital Heliport,39.29729843,-76.59329987,260,NA,US,US-MD,Baltimore,no,0MD3,,0MD3,,,
7314,0MD4,small_airport,Pond View Private Airport,39.26679993,-76.18720245,47,NA,US,US-MD,Chestertown,no,0MD4,,0MD4,,,
7315,0MD5,heliport,Greater Laurel Beltsville Hospital Heliport,39.08760071,-76.88159943,285,NA,US,US-MD,Laurel,no,0MD5,,0MD5,,,
7316,0MD6,small_airport,Walters Airport,39.38119888,-77.10579681,750,NA,US,US-MD,Mount Airy,no,0MD6,,0MD6,,,
7317,0MD7,heliport,The Aspen Institute Heliport,38.90930176,-76.11969757,20,NA,US,US-MD,Queenstown,no,0MD7,,0MD7,,,
7318,0MD8,heliport,Security Ford Heliport,39.2458992,-76.67610168,30,NA,US,US-MD,Arbutus,no,0MD8,,0MD8,,,
7319,0MD9,heliport,Calvert Memorial Hospital Heliport,38.56100082,-76.59660339,143,NA,US,US-MD,Prince Frederick,no,0MD9,,0MD9,,,
45455,0ME4,small_airport,Peasley Field,44.742469,-68.474403,271,NA,US,US-ME,Otis,no,0ME4,,0ME4,,,
7320,0MI0,closed,Sumner Heliport,42.970001,-85.6659,657,NA,US,US-MI,Grand Rapids,no,,,,,,0MI0
7321,0MI1,small_airport,Sugar Springs Airpark,44.140301,-84.4375,940,NA,US,US-MI,Gladwin,no,,,5M6,http://www.sugarsprings.net/airpark.html,,0MI1
7322,0MI2,closed,Stier Airstrip,44.522202,-83.683296,850,NA,US,US-MI,Glennie,no,,,,,,0MI2
7323,0MI3,small_airport,Kelleys Airport,44.63339996,-84.48339844,1000,NA,US,US-MI,Grayling,no,0MI3,,0MI3,,,
7324,0MI4,small_airport,Lesterson-Dempsey Airstrip,46.270198,-87.386496,1120,NA,US,US-MI,Gwinn,no,0MI4,,0MI4,,,Lesterson Field
7325,0MI6,small_airport,Young's Airport,46.38750076,-85.18399811,800,NA,US,US-MI,Hulbert,no,0MI6,,0MI6,,,
7326,0MI7,heliport,Four Star Heliport,42.04309845,-83.35939789,603,NA,US,US-MI,Carleton,no,0MI7,,0MI7,,,
7327,0MI8,closed,Twin Lakes Airport,44.900002,-84.300001,1275,NA,US,US-MI,Lewiston,no,,,,,,0MI8
7328,0MI9,heliport,Henry Ford Hospital Heliport,42.36750031,-83.08439636,633,NA,US,US-MI,Detroit,no,0MI9,,0MI9,,,
7330,0MN1,small_airport,Brinkman Airport,44.26250076,-94.06970215,1020,NA,US,US-MN,St. Peter,no,0MN1,,0MN1,,,
7334,0MN5,small_airport,Pankratz Airport,44.30720139,-94.91690063,1033,NA,US,US-MN,Springfield,no,0MN5,,0MN5,,,
7335,0MN6,small_airport,Matson Field,43.66220093,-92.40429688,1365,NA,US,US-MN,Spring Valley,no,0MN6,,0MN6,,,
7336,0MN7,heliport,Ely Bloomenson Community Hospital Heliport,47.89910126,-91.8730011,1450,NA,US,US-MN,Ely,no,0MN7,,0MN7,,,
7337,0MN8,small_airport,Keller Airport,45.13579941,-92.85939789,990,NA,US,US-MN,Stillwater,no,0MN8,,0MN8,,,
7338,0MN9,heliport,Triple H Heliport,45.31330109,-93.71759796,980,NA,US,US-MN,Big Lake,no,0MN9,,0MN9,,,
7339,0MO0,small_airport,Ferros Ranch-Aero Airport,38.41030121,-93.85019684,775,NA,US,US-MO,Clinton,no,0MO0,,0MO0,,,
7340,0MO1,small_airport,Flying G Airport,38.54449844,-94.09470367,920,NA,US,US-MO,Creighton,no,0MO1,,0MO1,,,
7341,0MO2,small_airport,Short-N-Ruff Airport,37.7867012,-90.78009796,950,NA,US,US-MO,Caledonia,no,0MO2,,0MO2,,,
7342,0MO3,closed,Arvin Ranch Airport,38.4403,-94.5933,1000,NA,US,US-MO,Drexel,no,,,,,,0MO3
7343,0MO4,heliport,Bert Walter Berkowitz Heliport,39.08530045,-94.57379913,890,NA,US,US-MO,Kansas City,no,0MO4,,0MO4,,,
7344,0MO5,small_airport,Joe D Lewis Airport,40.13339996,-92.10019684,780,NA,US,US-MO,Edina,no,0MO5,,0MO5,,,
7345,0MO6,small_airport,Hall Airport,40.11669922,-92.26689911,850,NA,US,US-MO,Edina,no,0MO6,,0MO6,,,
7346,0MO7,heliport,St Joseph Hospital West Heliport,38.80329895,-90.77629852,531,NA,US,US-MO,Lake Saint Louis,no,0MO7,,0MO7,,,
7347,0MO8,small_airport,Sloan's Airport,39.1405983,-90.73680115,437,NA,US,US-MO,Elsberry,no,0MO8,,0MO8,,,
7348,0MO9,heliport,Emerson Heliport,38.72949982,-90.27839661,575,NA,US,US-MO,Ferguson,no,0MO9,,0MO9,,,
7349,0MS0,small_airport,Topton Air Estates Airport,32.47499847,-88.61669922,453,NA,US,US-MS,Meridian,no,0MS0,,0MS0,,,
7350,0MS1,small_airport,Franklin Field,31.42519951,-90.9029007,200,NA,US,US-MS,Meadville,no,0MS1,,0MS1,,,
7351,0MS2,small_airport,Morgan Field,31.54179955,-89.39170074,300,NA,US,US-MS,Seminary,no,0MS2,,0MS2,,,
7352,0MS3,heliport,Baptist Memorial Hospital-North Ms Heliport,34.34780121,-89.51899719,430,NA,US,US-MS,Oxford,no,0MS3,,0MS3,,,
7353,0MS4,heliport,Sheriff's Courthouse Heliport,30.37599945,-89.0861969,50,NA,US,US-MS,Gulfport,no,0MS4,,0MS4,,,
7354,0MS5,small_airport,Lewis Air Service Airport,33.39179993,-90.91680145,120,NA,US,US-MS,Leland,no,0MS5,,0MS5,,,
7355,0MS6,heliport,Levert Heliport,30.30130005,-89.23449707,25,NA,US,US-MS,Pass Christian,no,0MS6,,0MS6,,,
7356,0MS7,small_airport,Hale Field,34.34260178,-89.14309692,346,NA,US,US-MS,Pontotoc,no,0MS7,,0MS7,,,
7357,0MS8,small_airport,Catfish Point Airport,33.69929886,-91.1651001,154,NA,US,US-MS,Benoit,no,0MS8,,0MS8,,,
7358,0MS9,small_airport,Shenandoah Valley Farms Airport,33.80070114,-89.02729797,300,NA,US,US-MS,Houston,no,0MS9,,0MS9,,,
7359,0MT1,small_airport,Williams Field,47.49750137,-112.3909988,4070,NA,US,US-MT,Augusta,no,0MT1,,0MT1,,,
7360,0MT2,heliport,Big Sandy Medical Center Heliport,48.17969894,-110.1090012,2750,NA,US,US-MT,Big Sandy,no,0MT2,,0MT2,,,
7361,0MT3,heliport,Stock Farm Heliport,46.25080109,-114.0670013,3920,NA,US,US-MT,Hamilton,no,0MT3,,0MT3,,,
7362,0MT4,small_airport,Kimp Airport,46.27859879,-114.1409988,3510,NA,US,US-MT,Hamilton,no,0MT4,,0MT4,,,
7363,0MT5,small_airport,Cottonwood Airport,45.63420105,-108.848999,3350,NA,US,US-MT,Laurel,no,0MT5,,0MT5,,,
7364,0MT6,small_airport,Hanson Airport,48.04059982,-114.6790009,3900,NA,US,US-MT,Marion,no,0MT6,,0MT6,,,
7365,0MT7,small_airport,Pinehurst Ranch Airport,47.66080093,-115.4039993,2460,NA,US,US-MT,Thompson Falls,no,0MT7,,0MT7,,,
7366,0MT8,heliport,Glacier Heli Tours Heliport,48.48669815,-113.9980011,3300,NA,US,US-MT,West Glacier,no,0MT8,,0MT8,,,
7367,0MT9,small_airport,Lone Hawk Airport,48.48329926,-114.4929962,3284,NA,US,US-MT,White Fish,no,0MT9,,0MT9,,,
7368,0MU0,small_airport,Eagle Field,37.23469925,-91.09359741,784,NA,US,US-MO,Ellington,no,0MU0,,0MU0,,,
7369,0MU1,small_airport,Sunderland Airport,37.24670029,-94.17389679,1027,NA,US,US-MO,Avilla,no,0MU1,,0MU1,,,
7370,0MU2,heliport,Christian Hospital Northeast Heliport,38.7745018,-90.23899841,520,NA,US,US-MO,Florissant,no,0MU2,,0MU2,,,
7371,0MU3,heliport,Hannibal Regional Hospital Heliport,39.71120071,-91.45069885,744,NA,US,US-MO,Hannibal,no,0MU3,,0MU3,,,
7372,0MU4,small_airport,Slaughter Airport,39.61610031,-92.86689758,800,NA,US,US-MO,Marceline,no,0MU4,,0MU4,,,
7373,0MU5,heliport,Holden Heliport,38.71969986,-93.99440002,865,NA,US,US-MO,Holden,no,0MU5,,0MU5,,,
7374,0MU6,heliport,Bradbury-Rolf Memorial Heliport,39.07329941,-93.73590088,815,NA,US,US-MO,Higginsville,no,0MU6,,0MU6,,,
7375,0MU7,small_airport,Lambs Field,38.875,-94.13970184,1070,NA,US,US-MO,Lone Jack,no,0MU7,,0MU7,,,
7376,0MU8,small_airport,Prince STOLport,37.43870163,-89.75900269,582,NA,US,US-MO,Millersville,no,0MU8,,0MU8,,,
7377,0MY0,heliport,Kenyon Heliport,44.33390045,-92.94329834,1500,NA,US,US-MN,Kenyon,no,0MY0,,0MY0,,,
7378,0MY1,heliport,Bozeman Deaconess Hospital Heliport,45.66999817,-111.0189972,4925,NA,US,US-MT,Bozeman,no,0MY1,,0MY1,,,
7379,0N0,small_airport,Roosterville Airport,39.29109955,-94.44219971,1004,NA,US,US-MO,Liberty,no,0N0,,0N0,,,
7380,0N4,small_airport,Chandelle Estates Airport,39.20230103,-75.48549652,22,NA,US,US-DE,Dover,no,0N4,,0N4,,,
7381,0N5,heliport,Deldot Helistop,39.14960098,-75.50489807,30,NA,US,US-DE,Dover,no,0N5,,0N5,,,
7382,0N6,small_airport,Albanna Aviation Airport,39.012602,-75.533501,50,NA,US,US-DE,Felton,no,,,0N6,,https://web.archive.org/web/20170306030610/https://en.wikipedia.org/wiki/Henderson_Aviation_Airport,Henderson Aviation
7383,0NA1,small_airport,Goerger Airport,46.24549866,-97.03759766,1045,NA,US,US-ND,Barney,no,0NA1,,0NA1,,,
7384,0NA5,small_airport,Sorlie Airport,48.00109863,-99.56289673,1580,NA,US,US-ND,Maddock,no,0NA5,,0NA5,,,
7385,0NA9,small_airport,Boyd's Turf Airport,46.75,-103.8010025,2750,NA,US,US-ND,Golva,no,0NA9,,0NA9,,,
7386,0NC0,heliport,Wayne Memorial Hospital Inc. Heliport,35.3987999,-77.9496994,106,NA,US,US-NC,Goldsboro,no,0NC0,,0NC0,,,
7387,0NC1,small_airport,Bearwallow Farm Airport,35.45709991,-82.37539673,3608,NA,US,US-NC,Hendersonville,no,0NC1,,0NC1,,,
7388,0NC2,heliport,Moore Regional Hospital Heliport,35.20489883,-79.45670319,460,NA,US,US-NC,Pinehurst,no,0NC2,,0NC2,,,
7389,0NC3,heliport,Washington County Hospital Heliport,35.87519836,-76.6996994,19,NA,US,US-NC,Plymouth,no,0NC3,,0NC3,,,
7390,0NC4,heliport,Wake Medical Center Heliport,35.78680038,-78.58580017,245,NA,US,US-NC,Raleigh,no,0NC4,,0NC4,,,
7391,0NC5,heliport,Nash General Hospital Heliport,35.91889954,-77.78919983,156,NA,US,US-NC,Rocky Mount,no,0NC5,,0NC5,,,
7392,0NC6,heliport,Our Community Hospital Heliport,36.13130188,-77.41889954,113,NA,US,US-NC,Scotland Neck,no,0NC6,,0NC6,,,
7393,0NC7,small_airport,Lindsay Airport,36.35720062,-79.99749756,700,NA,US,US-NC,Madison,no,0NC7,,0NC7,,,
7394,0NC8,small_airport,Flying S Ranch Airport,35.755699,-80.735298,830,NA,US,US-NC,Cleveland,no,0NC8,,0NC8,,,Double Creek Ranch
7395,0NC9,heliport,Maria Parham Health DLP Affiliate Heliport,36.3307,-78.449699,465,NA,US,US-NC,Henderson,no,0NC9,,0NC9,,,Maria Parham Hospital
7396,0ND0,small_airport,Gilbertson Field,47.92919922,-99.40039825,1550,NA,US,US-ND,Flora,no,0ND0,,0ND0,,,
7397,0ND6,small_airport,Schumacher Strip,46.05500031,-99.917099,2020,NA,US,US-ND,Hague,no,0ND6,,0ND6,,,
7398,0ND7,small_airport,Saville Private Airport,46.46530151,-100.1050034,1961,NA,US,US-ND,Hazelton,no,0ND7,,0ND7,,,
7399,0NE0,small_airport,Merrihew Airport,41.84999847,-101.9499969,3815,NA,US,US-NE,Ashby,no,0NE0,,0NE0,,,
7400,0NE1,small_airport,Runner Landing Area Airport,42.40719986,-101.9319992,3760,NA,US,US-NE,Ashby,no,0NE1,,0NE1,,,
7401,0NE2,small_airport,Merry Airport,41.86660004,-101.9169998,3791,NA,US,US-NE,Ashby,no,0NE2,,0NE2,,,
7402,0NE3,heliport,Syracuse Hospital Heliport,40.66719818,-96.18640137,1120,NA,US,US-NE,Syracuse,no,0NE3,,0NE3,,,
7403,0NE4,heliport,Franklin County Memorial Hospital Heliport,40.09719849,-98.95040131,1950,NA,US,US-NE,Franklin,no,0NE4,,0NE4,,,
7404,0NE5,small_airport,Newman Airport,41.02109909,-102.0179977,3525,NA,US,US-NE,Big Springs,no,0NE5,,0NE5,,,
7405,0NE6,small_airport,Frager Field,40.43330002,-98.07060242,1765,NA,US,US-NE,Fairfield,no,0NE6,,0NE6,,,
324652,0NH7,heliport,Leinsing Heliport,43.151831,-70.846902,10,NA,US,US-NH,Dover,no,0NH7,,0NH7,,,2ME7
7406,0NJ0,heliport,Atlantic City Medical Center Heliport,39.35897025,-74.4346717,82,NA,US,US-NJ,Atlantic City,no,0NJ0,,0NJ0,,,
7407,0NJ1,heliport,Berkeley Township Police Heliport,39.90729904,-74.23490143,54,NA,US,US-NJ,Bayville,no,0NJ1,,0NJ1,,,
7408,0NJ2,heliport,Ballymere Heliport,40.75289917,-74.43990326,280,NA,US,US-NJ,Morristown,no,0NJ2,,0NJ2,,,
7409,0NJ3,heliport,Mount Holly Heliport,39.96680069,-74.79959869,45,NA,US,US-NJ,Mount Holly,no,0NJ3,,0NJ3,,,
7410,0NJ4,heliport,Weichert Headquarters Heliport,40.94070053,-74.46150208,103,NA,US,US-NJ,Morris Plains,no,0NJ4,,0NJ4,,,
7411,0NJ5,small_airport,Fla-Net Airport,40.88589859,-74.70570374,1040,NA,US,US-NJ,Netcong,no,0NJ5,,0NJ5,,,
7412,0NJ6,small_airport,Dix Field,39.31679916,-74.63289642,8,NA,US,US-NJ,Linwood,no,0NJ6,,0NJ6,,,
7413,0NJ7,heliport,Essex Generating Station Heliport,40.7378006,-74.11889648,8,NA,US,US-NJ,Newark,no,0NJ7,,0NJ7,,,
7414,0NJ8,heliport,Port Newark Helistop,40.70230103,-74.15070343,10,NA,US,US-NJ,Newark,no,0NJ8,,0NJ8,,,
7415,0NJ9,heliport,Jersey Tpke New Brunswick Helistop,40.47729874,-74.40789795,70,NA,US,US-NJ,New Brunswick,no,0NJ9,,0NJ9,,,
7416,0NK0,small_airport,Berdick Field,42.33399963,-78.79090118,1690,NA,US,US-NY,Cattaraugus,no,0NK0,,0NK0,,,
7417,0NK1,small_airport,Spring Brook Airport,43.36169815,-76.22019958,450,NA,US,US-NY,Central Square,no,0NK1,,0NK1,,,
7418,0NK2,small_airport,Westwind Farm Airport,42.98339844,-74.0161972,800,NA,US,US-NY,Charlton,no,0NK2,,0NK2,,,
7419,0NK3,small_airport,Seven Gullies Airport,42.69589996,-77.79219818,600,NA,US,US-NY,Groveland,no,0NK3,,0NK3,,,
7420,0NK4,heliport,Medical Center Heliport,40.72589874,-73.55370331,80,NA,US,US-NY,Hempstead,no,0NK4,,0NK4,,,
7421,0NK5,heliport,Mid-Hudson Helicopter Service Heliport,41.60620117,-73.82759857,270,NA,US,US-NY,Hopewell Junction,no,0NK5,,0NK5,,,
7422,0NK6,small_airport,Lapeer Flyer Airport,42.43840027,-76.08879852,1280,NA,US,US-NY,Marathon,no,0NK6,,0NK6,,,
7423,0NK7,heliport,Ibm King St Heliport,41.10250092,-73.72609711,470,NA,US,US-NY,Armonk,no,0NK7,,0NK7,,,
7424,0NK8,small_airport,Rocky Reef Farm Airport,41.92089844,-73.67040253,450,NA,US,US-NY,Attlebury,no,0NK8,,0NK8,,,
7425,0NK9,small_airport,Lakeview Airport,43.01029968,-75.82689667,1050,NA,US,US-NY,Chittenango,no,0NK9,,0NK9,,,
7426,0NM0,small_airport,Columbus Municipal Airport,31.82369995,-107.6269989,4024,NA,US,US-NM,Columbus,no,0NM0,,0NM0,,,
7427,0NM7,small_airport,Negrito Airstrip,33.52090073,-108.5429993,8143,NA,US,US-NM,Reserve,no,0NM7,,0NM7,,,
7428,0NV1,heliport,Summerlin Medical Center Heliport,36.1935997,-115.3010025,2745,NA,US,US-NV,Las Vegas,no,0NV1,,0NV1,,,
7429,0NY0,small_airport,Bennetts Airport,43.70009995,-73.98290253,1040,NA,US,US-NY,North Creek,no,0NY0,,0NY0,,,
7430,0NY1,small_airport,Russell Field,43.1391983,-73.65319824,260,NA,US,US-NY,Northumberland,no,0NY1,,0NY1,,,
7431,0NY3,small_airport,Kermizian Airport,43.31399918,-74.93209839,1440,NA,US,US-NY,Ohio,no,0NY3,,0NY3,,,
7432,0NY5,heliport,State Police Troop D Heliport,43.09420013,-75.64959717,507,NA,US,US-NY,Oneida,no,0NY5,,0NY5,,,
7433,0NY6,heliport,New York State Police Heliport,42.92839813,-76.6155014,600,NA,US,US-NY,Auburn,no,0NY6,,0NY6,,,
7434,0NY7,small_airport,Murphys Landing Strip,43.03760147,-74.18430328,940,NA,US,US-NY,Perth,no,0NY7,,0NY7,,,
7435,0NY8,small_airport,Wenskoski Field,42.99729919,-74.24539948,800,NA,US,US-NY,Perth,no,0NY8,,0NY8,,,
7437,0O4,small_airport,Corning Municipal Airport,39.9435997,-122.1709976,292,NA,US,US-CA,Corning,no,0O4,,0O4,,http://en.wikipedia.org/wiki/Corning_Municipal_Airport_(California),
7438,0O9,small_airport,Ward Field,41.84569931,-123.9850006,356,NA,US,US-CA,Gasquet,no,0O9,,0O9,,,
7439,0OH1,heliport,Cirino Heliport,41.44390106,-81.32759857,1250,NA,US,US-OH,Chagrin Falls,no,0OH1,,0OH1,,,
7440,0OH2,closed,Jenkins Field,39.970604,-83.911598,1080,NA,US,US-OH,North Hampton,no,,,,,,0OH2
7441,0OH3,heliport,Hamilton County Sheriff's Patrol Heliport,39.27920151,-84.56469727,865,NA,US,US-OH,Forest Park,no,0OH3,,0OH3,,,
322182,0OH4,heliport,Upper Valley Medical Center Heliport,40.085621,-84.228562,867,NA,US,US-OH,Troy,no,0OH4,,0OH4,,,
7442,0OH6,small_airport,Fry Field,39.6006012,-84.0196991,775,NA,US,US-OH,Spring Valley,no,0OH6,,0OH6,,,
7443,0OH7,small_airport,Apple Airport,40.1432991,-84.17189789,1000,NA,US,US-OH,Piqua,no,0OH7,,0OH7,,,
7444,0OH8,small_airport,Fry Airport,40.18840027,-84.25610352,900,NA,US,US-OH,Piqua,no,0OH8,,0OH8,,,
7445,0OH9,closed,Parknavy Airport,40.0717,-83.229897,943,NA,US,US-OH,Plain City,no,,,,,,"0OH9, STOLport"
7446,0OI0,heliport,Foltz Heliport,40.73590088,-81.24680328,1012,NA,US,US-OH,East Canton,no,0OI0,,0OI0,,,
7447,0OI1,heliport,Autolite Heliport,41.17919922,-83.41519928,759,NA,US,US-OH,Fostoria,no,0OI1,,0OI1,,,
7448,0OI2,small_airport,Unger Field,39.35979843,-83.41770172,940,NA,US,US-OH,Greenfield,no,0OI2,,0OI2,,,
7449,0OI3,small_airport,Galloway Airport,41.38209915,-82.7161026,643,NA,US,US-OH,Sandusky,no,0OI3,,0OI3,,,
7450,0OI4,small_airport,Salt Box Airport,41.32426453,-81.15930939,1250,NA,US,US-OH,Hiram,no,0OI4,,0OI4,,,
7451,0OI6,small_airport,Victor's Landing Airport,41.83810043,-80.64369965,860,NA,US,US-OH,Kingsville,no,0OI6,,0OI6,,,
7452,0OI9,small_airport,Hidden Quarry Airport,38.89450073,-83.1135025,830,NA,US,US-OH,Lucasville,no,0OI9,,0OI9,,,
7453,0OK0,small_airport,Edmond Airport,35.6833992,-97.43360138,1169,NA,US,US-OK,Edmond,no,0OK0,,0OK0,,,
7454,0OK1,small_airport,Mckey Airport,34.6570015,-97.40170288,1056,NA,US,US-OK,Elmore City,no,0OK1,,0OK1,,,
7455,0OK2,closed,Parkview Hospital Heliport,35.5298,-97.983902,1349,NA,US,US-OK,El Reno,no,,,,,,0OK2
7456,0OK3,small_airport,Mckinley Ranch Airport,35.61949921,-98.52259827,1420,NA,US,US-OK,Geary,no,0OK3,,0OK3,,,
7457,0OK4,small_airport,Rock Creek Farm Airport,34.66059875,-96.25360107,730,NA,US,US-OK,Coal Gate,no,0OK4,,0OK4,,,
7458,0OK5,small_airport,Chappell Airport,35.88890076,-97.40029907,1070,NA,US,US-OK,Guthrie,no,0OK5,,0OK5,,,
7459,0OK6,small_airport,Ellis/Harvey Airport,35.80170059,-97.38610077,1220,NA,US,US-OK,Guthrie,no,0OK6,,0OK6,,,
7460,0OK7,heliport,Shattuck Hospital Heliport,36.25,-99.87539673,2200,NA,US,US-OK,Shattuck,no,0OK7,,0OK7,,,
7461,0OK8,small_airport,Cade's Airport,36.29249954,-97.5931015,1140,NA,US,US-OK,Covington,no,0OK8,,0OK8,,,
7462,0OK9,small_airport,Crystal Airport,36.21340179,-96.63700104,1016,NA,US,US-OK,Jennings,no,0OK9,,0OK9,,,
7463,0OR0,heliport,Providence Hospital Heliport,42.33869934,-122.8619995,1350,NA,US,US-OR,Medford,no,0OR0,,0OR0,,http://en.wikipedia.org/wiki/Providence_Hospital_Heliport,
7465,0OR2,heliport,Hendershots Heliport,42.1332016,-123.4509964,1200,NA,US,US-OR,Merlin,no,0OR2,,0OR2,,,
7466,0OR3,small_airport,Long Ranch Airport,42.01900101,-121.7040024,4090,NA,US,US-OR,Merrill,no,0OR3,,0OR3,,,
7467,0OR4,heliport,Round Butte Heliport,44.61650085,-121.2679977,2125,NA,US,US-OR,Metolius,no,0OR4,,0OR4,,,
7468,0OR5,small_airport,East Oregon Cattle Co Airport,42.50350189,-122.8550034,1345,NA,US,US-OR,Eagle Point,no,0OR5,,0OR5,,,
7469,0OR6,small_airport,Rome Service Airport,42.83399963,-117.6289978,3387,NA,US,US-OR,Rome,no,0OR6,,0OR6,,,
7470,0OR7,small_airport,Marr Field,44.85400009,-123.2639999,275,NA,US,US-OR,Monmouth,no,0OR7,,0OR7,,,
7471,0OR8,small_airport,Sutton on Rogue Airport,42.48479843,-122.8659973,1260,NA,US,US-OR,White City,no,0OR8,,0OR8,,,
7472,0OR9,small_airport,Hanel Field,45.59260178,-121.5490036,1626,NA,US,US-OR,Mount Hood,no,0OR9,,0OR9,,,
7473,0P0,heliport,Valley Forge Bicentennial Heliport,40.12120056,-75.40599823,260,NA,US,US-PA,Norristown,no,0P0,,0P0,,,
7474,0P1,small_airport,Van Pak Airport,39.8321991,-99.5687027,2213,NA,US,US-KS,Prairie View,no,0P1,,0P1,,,
7475,0P2,small_airport,Shoestring Aviation Airfield,39.7947998,-76.64720154,1000,NA,US,US-PA,Stewartstown,no,0P2,,0P2,,,
7476,0PA0,small_airport,Philadelphia Gliderport,40.331227,-75.248125,670,NA,US,US-PA,Hilltown,no,3PA2,,3PA2,https://pgcsoaring.org/gliderport.cfm,,0PA0
7477,0PA1,heliport,Phoenix Technologies Heliport,40.11819839,-75.40129852,252,NA,US,US-PA,Norristown,no,0PA1,,0PA1,,,
7478,0PA2,small_airport,Haunstein Ultralightport,40.31679916,-77.12470245,600,NA,US,US-PA,Shermans Dale,no,0PA2,,0PA2,,,
7479,0PA3,small_airport,Robbins Farm Airport,41.74950027,-76.7602005,1207,NA,US,US-PA,Troy,no,0PA3,,0PA3,,,
7480,0PA4,small_airport,Ecko Field,40.23759842,-76.72470093,380,NA,US,US-PA,Hummelstown,no,0PA4,,0PA4,,,
7481,0PA5,small_airport,Fisher Airport,41.49449921,-79.8309021,1500,NA,US,US-PA,Franklin,no,0PA5,,0PA5,,,
7482,0PA6,small_airport,Hostetler Airport,40.63090134,-77.85030365,760,NA,US,US-PA,Huntingdon,no,0PA6,,0PA6,,,
7483,0PA7,closed,Linvill Airport,39.884801,-75.414902,180,NA,US,US-PA,Media,no,,,,,,0PA7
7484,0PA8,heliport,Geisinger Community Medical Center Nap Heliport,41.399957,-75.646467,508,NA,US,US-PA,Scranton,no,0PA8,,0PA8,,,
7485,0PA9,heliport,Carson Heliport,40.33340073,-75.21630096,415,NA,US,US-PA,Perkasie,no,0PA9,,0PA9,,,
7486,0PN0,small_airport,Fletcher Airport,41.4435997,-80.15390015,1335,NA,US,US-PA,Sheakeyville,no,0PN0,,0PN0,,,
7488,0PN2,small_airport,Flying Acres Airport,41.07310104,-80.07029724,1247,NA,US,US-PA,Slippery Rock,no,0PN2,,0PN2,,,
7489,0PN3,heliport,Wyeth-Ayerst Nr Heliport,40.15869904,-75.46340179,186,NA,US,US-PA,Collegeville,no,0PN3,,0PN3,,,
7490,0PN4,small_airport,Kitner Airport,40.41289902,-77.24140167,960,NA,US,US-PA,New Bloomfield,no,0PN4,,0PN4,,,
7491,0PN5,small_airport,Nichols Airport,41.77920151,-79.5983963,1761,NA,US,US-PA,Spartansburg,no,0PN5,,0PN5,,,
7492,0PN6,small_airport,Memmi Airport,40.16899872,-77.99250031,1138,NA,US,US-PA,Three Springs,no,0PN6,,0PN6,,,
7493,0PN7,small_airport,Drillmore Acres Airport,40.12829971,-77.63140106,680,NA,US,US-PA,Newburg,no,0PN7,,0PN7,,,
7494,0PN8,small_airport,Shriver Airport,41.61669922,-79.68309784,1560,NA,US,US-PA,Titusville,no,0PN8,,0PN8,,,
7495,0PN9,small_airport,Paul Personal Use Airport,41.7195015,-79.67780304,1645,NA,US,US-PA,Titusville,no,0PN9,,0PN9,,,
7496,0PS0,small_airport,Frederick Airpark,41.3708992,-79.34169769,1560,NA,US,US-PA,Tylersburg,no,0PS0,,0PS0,,,
7497,0PS1,heliport,Mc Crory Stores Heliport,39.98149872,-76.67140198,420,NA,US,US-PA,York,no,0PS1,,0PS1,,,
7498,0PS2,heliport,Marian Heliport,40.98949814,-75.751297,1285,NA,US,US-PA,Weatherly,no,0PS2,,0PS2,,,
7499,0PS3,small_airport,Carsonville Airport,40.49039841,-76.76660156,800,NA,US,US-PA,Carsonville,no,0PS3,,0PS3,,,
7500,0PS4,small_airport,Old Orchard Airport,41.00839996,-78.56089783,1980,NA,US,US-PA,Curwensville,no,0PS4,,0PS4,,,
7501,0PS5,heliport,Used Parts Heliport,40.87929916,-75.19270325,660,NA,US,US-PA,East Bangor,no,0PS5,,0PS5,,,
7502,0PS6,heliport,Herbst Heliport,39.94950104,-76.55329895,485,NA,US,US-PA,East Prospect,no,0PS6,,0PS6,,,
7503,0PS7,small_airport,Harman Airport,40.52230072,-76.84549713,720,NA,US,US-PA,Elizabethville,no,0PS7,,0PS7,,,
7504,0PS8,heliport,Bayfront Garage Heliport,42.13259888,-80.0861969,1130,NA,US,US-PA,Erie,no,0PS8,,0PS8,,,
7505,0PS9,heliport,Delaware Valley Medical Center Heliport,40.18289948,-74.86789703,141,NA,US,US-PA,Fairless Hills,no,0PS9,,0PS9,,,
7506,0Q3,small_airport,Sonoma Valley Airport,38.2234993,-122.4499969,10,NA,US,US-CA,Schellville/Sonoma,no,0Q3,,0Q3,,,
7507,0Q4,small_airport,Selma Airport,36.58160019,-119.6579971,305,NA,US,US-CA,Selma,no,0Q4,,0Q4,,,
7508,0Q6,closed,Shingletown Airport,40.522099,-121.818001,3880,NA,US,US-CA,Shingletown,no,,,,,http://en.wikipedia.org/wiki/Shingletown_Airport,0Q6
7509,0Q9,small_airport,Sonoma Skypark Airport,38.25770187,-122.4339981,20,NA,US,US-CA,Sonoma,no,0Q9,,0Q9,,,
7510,0R2,small_airport,Lincoln Municipal Airport,38.40390015,-93.33300018,940,NA,US,US-MO,Lincoln,no,0R2,,0R2,,,
7511,0R7,small_airport,The Red River Airport,31.99069977,-93.30740356,177,NA,US,US-LA,Coushatta,no,0R7,,0R7,,,
7512,0R9,small_airport,Plainville Airpark,39.19449997,-99.30339813,2182,NA,US,US-KS,Plainville,no,0R9,,0R9,,,
7513,0S1,small_airport,Meadow Creek Usfs Airport,47.84579849,-113.4089966,3984,NA,US,US-MT,Meadow Creek,no,0S1,,0S1,,,
7514,0S2,small_airport,Stockton Municipal Airport,39.37720108,-99.29509735,1973,NA,US,US-KS,Stockton,no,0S2,,0S2,,,
7515,0S5,small_airport,Nez Perce Municipal Airport,46.23740005,-116.2429962,3201,NA,US,US-ID,Nez Perce,no,0S5,,0S5,,,
7516,0SD0,small_airport,Lenling Airport,45.42499924,-100.8919983,2142,NA,US,US-SD,Glencross,no,0SD0,,0SD0,,,
7517,0SD1,small_airport,Lodi Airport,42.97219849,-96.98020172,1200,NA,US,US-SD,Wakonda,no,0SD1,,0SD1,,,
7518,0SD2,heliport,Prairie Lakes West Heliport,44.91109848,-97.11949921,1799,NA,US,US-SD,Watertown,no,0SD2,,0SD2,,,
7519,0SD3,small_airport,Bledsoe Ranch Airport,45.26940155,-103.2170029,2872,NA,US,US-SD,Hoover,no,0SD3,,0SD3,,,
7520,0SD4,heliport,Brookview Manor Heliport,44.30810165,-96.76470184,1670,NA,US,US-SD,Brookings,no,0SD4,,0SD4,,,
7521,0SD5,heliport,The Fort Heliport,43.8064003,-103.637001,5800,NA,US,US-SD,Custer,no,0SD5,,0SD5,,,
7522,0SD6,small_airport,Oasis Ranch Airport,44.28889847,-101.8259964,2580,NA,US,US-SD,Philip,no,0SD6,,0SD6,,,
7523,0SD7,small_airport,Porch Ranch Airport,43.5243988,-101.7340012,2775,NA,US,US-SD,Wanblee,no,0SD7,,0SD7,,,
7524,0SD8,small_airport,Juhnke Airport,43.78279877,-100.2929993,1900,NA,US,US-SD,Vivian,no,0SD8,,0SD8,,,
7525,0SD9,heliport,Crazy Horse Heliport,43.82500076,-103.6360016,5900,NA,US,US-SD,Custer,no,0SD9,,0SD9,,,
7526,0T3,closed,Ira Biffle Airfield,37.313901,-89.997299,421,NA,US,US-MO,Marble Hill,no,,,,,,"0T3, Twin City Airpark,"
7527,0T7,closed,Kittyhawk Airport,33.126202,-96.683601,700,NA,US,US-TX,Allen,no,,,,,,0T7
7528,0TA0,heliport,Mainland Regional Health Care System Heliport,29.3932991,-94.98519897,16,NA,US,US-TX,Lamarque/Texas City,no,0TA0,,0TA0,,,
7529,0TA1,small_airport,Buddy Harmel Airport,34.2195015,-101.9800034,3552,NA,US,US-TX,Halfway,no,0TA1,,0TA1,,,
7530,0TA2,small_airport,Smith Farms Airport,34.21670151,-101.9250031,3487,NA,US,US-TX,Halfway,no,0TA2,,0TA2,,,
7531,0TA3,small_airport,Tate Ranch Airport,30.30430031,-102.1380005,2650,NA,US,US-TX,Dryden,no,0TA3,,0TA3,,,
7532,0TA4,small_airport,Erco Field,32.4978981,-96.27050018,395,NA,US,US-TX,Kaufman,no,0TA4,,0TA4,,,
7533,0TA5,heliport,Metro Heli-Pad Heliport,29.61470032,-95.35489655,57,NA,US,US-TX,Houston,no,0TA5,,0TA5,,,
7534,0TA6,heliport,Arco Ingleside Shorebase Heliport,27.8477993,-97.22299957,20,NA,US,US-TX,Ingleside,no,0TA6,,0TA6,,,
7535,0TA7,small_airport,Alta Vista Ranch Airport,30.14819908,-103.8929977,4702,NA,US,US-TX,Marfa,no,0TA7,,0TA7,,,
7536,0TA8,small_airport,Womack Plantation Airport,33.84870148,-95.40720367,410,NA,US,US-TX,Paris,no,0TA8,,0TA8,,,
7537,0TA9,heliport,Houston Oil & Minerals Port Bolivar Nr 2 Heliport,29.39109993,-94.76409912,8,NA,US,US-TX,Port Bolivar,no,0TA9,,0TA9,,,
7538,0TE0,small_airport,Robertson Ranch Airport,29.69300079,-101.1620026,1663,NA,US,US-TX,Comstock,no,0TE0,,0TE0,,,
7539,0TE1,heliport,Christus Spohn Hospital Memorial Heliport,27.77980042,-97.41419983,38,NA,US,US-TX,Corpus Christi,no,0TE1,,0TE1,,,
7540,0TE2,heliport,Bell Helicopter Hurst Heliport,32.80009842,-97.16699982,524,NA,US,US-TX,Hurst,no,0TE2,,0TE2,,,
7541,0TE3,small_airport,Buzz Field,33.92919922,-100.8420029,2614,NA,US,US-TX,Roaring Springs,no,0TE3,,0TE3,,,
7542,0TE4,small_airport,Hilltop Lakes Airport,31.08099937,-96.21520233,501,NA,US,US-TX,Hilltop Lakes,no,0TE4,,0TE4,,,
7543,0TE5,small_airport,Santa Maria Ranch Airport,27.43379974,-99.18589783,516,NA,US,US-TX,Laredo,no,0TE5,,0TE5,,,
7544,0TE6,small_airport,Gorman Airport,32.20429993,-98.66560364,1452,NA,US,US-TX,Gorman,no,0TE6,,0TE6,,,
7545,0TE7,small_airport,LBJ Ranch Airport,30.25180054,-98.62249756,1515,NA,US,US-TX,Johnson City,no,0TE7,JCY,0TE7,,,
7546,0TE8,heliport,Texas World Speedway Helistop Nr 1 Heliport,30.54050064,-96.22250366,270,NA,US,US-TX,College Station,no,0TE8,,0TE8,,,
7547,0TE9,heliport,Texas World Speedway Helistop Nr 2 Heliport,30.53960037,-96.22609711,270,NA,US,US-TX,College Station,no,0TE9,,0TE9,,,
7548,0TN0,small_airport,R & S Buzzard Airport,35.67670059,-86.896698,810,NA,US,US-TN,Spring Hill,no,0TN0,,0TN0,,,
7550,0TN2,small_airport,Village Airport,35.65589905,-84.1855011,920,NA,US,US-TN,Greenback,no,0TN2,,0TN2,,,
7551,0TN3,heliport,Park West Heliport,35.91759872,-84.10019684,1000,NA,US,US-TN,Knoxville,no,0TN3,,0TN3,,,
7552,0TN4,heliport,Physicians Medical Regional Center Heliport,35.991209,-83.927278,790,NA,US,US-TN,Knoxville,no,0TN4,,0TN4,,,St Mary's Medical Center Heliport
7553,0TN5,small_airport,Mc Donald Airport,35.86740112,-86.49780273,600,NA,US,US-TN,Murfreesboro,no,0TN5,,0TN5,,,
7554,0TN6,small_airport,Riner Farm Airport,36.1833992,-84.09909821,1125,NA,US,US-TN,Norris,no,0TN6,,0TN6,,,
7555,0TN7,heliport,Horne Properties Heliport,35.92359924,-84.0911026,975,NA,US,US-TN,Knoxville,no,0TN7,,0TN7,,,
7556,0TN8,heliport,Erlanger Medical Center Heliport,35.04919815,-85.29049683,745,NA,US,US-TN,Chattanooga,no,0TN8,,0TN8,,,
7557,0TN9,heliport,East Tennessee Children's Hospital Heliport,35.95619965,-83.9382019,1003,NA,US,US-TN,Knoxville,no,0TN9,,0TN9,,,
7558,0TS0,closed,Flower Mound Airport,33.0229,-97.122498,625,NA,US,US-TX,Flower Mound,no,,,,,,0TS0
7559,0TS1,small_airport,Dooley Airport,33.09870148,-97.27249908,650,NA,US,US-TX,Justin,no,0TS1,,0TS1,,,
7560,0TS2,small_airport,Ultralight International Ultralightport,32.94869995,-97.3289032,820,NA,US,US-TX,Haslet,no,0TS2,,0TS2,,,
7561,0TS3,heliport,Houston Heliport,29.81739998,-95.66329956,100,NA,US,US-TX,Houston,no,0TS3,,0TS3,,,
7562,0TS4,small_airport,Ullrich Airport,30.09189987,-96.79499817,410,NA,US,US-TX,Ledbetter,no,0TS4,,0TS4,,,
7563,0TS5,small_airport,Lake Bay Gall Airport,30.44190025,-95.18630219,230,NA,US,US-TX,Cleveland,no,0TS5,,0TS5,,,
7564,0TS6,heliport,Harris County Courthouse Heliport,29.71610069,-95.47689819,105,NA,US,US-TX,Houston,no,0TS6,,0TS6,,,
7565,0TS7,small_airport,Flying U Airport,32.83349991,-98.12529755,978,NA,US,US-TX,Mineral Wells,no,0TS7,,0TS7,,,
7566,0TS8,small_airport,Flying 'K' Ranch Ultralightport,26.15040016,-97.88359833,81,NA,US,US-TX,Mercedes,no,0TS8,,0TS8,,,
7567,0TS9,closed,Jim Roach Field,30.015499,-97.737197,600,NA,US,US-TX,Niederwald,no,,,,,,0TS9
4777,0TT8,heliport,Dynasty Heliport,14.96329975,145.6419983,150,OC,MP,MP-U-A,"San Jose, Tinian",no,0TT8,,0TT8,,,
7568,0TX0,small_airport,Nassau Bay Airport,32.41960144,-97.71279907,714,NA,US,US-TX,Granbury,no,0TX0,,0TX0,,,
7569,0TX1,small_airport,Pecan Plantation Airport,32.35400009,-97.67639923,710,NA,US,US-TX,Granbury,no,0TX1,,0TX1,,,
7570,0TX2,heliport,Heliport-Facility 5a Heliport,32.76259995,-97.05860138,546,NA,US,US-TX,Grand Prairie,no,0TX2,,0TX2,,,
7571,0TX3,heliport,UT Health East Texas Carthage Hospital Heliport,32.166429,-94.346098,296,NA,US,US-TX,Carthage,no,0TX3,,0TX3,,,Panola General Hospital
7572,0TX4,heliport,Aerospatiale Helicopter Corp Heliport,32.71170044,-97.02719879,535,NA,US,US-TX,Grand Prairie,no,0TX4,,0TX4,,,
7573,0TX5,small_airport,Shiloh Airport,33.02399826,-97.11969757,635,NA,US,US-TX,Flower Mound,no,0TX5,,0TX5,,,
7574,0TX6,small_airport,Elm Creek Airpark,29.50519943,-97.99690247,550,NA,US,US-TX,Seguin,no,0TX6,,0TX6,,,
7575,0TX7,closed,Lazy K Acres Airport,32.950102,-97.150297,700,NA,US,US-TX,Grapevine,no,,,,,,0TX7
7576,0TX8,small_airport,Jacobia Field,33.18040085,-96.04329681,570,NA,US,US-TX,Greenville,no,0TX8,,0TX8,,,
7577,0TX9,small_airport,Card Aerodrome,33.25009918,-96.11689758,540,NA,US,US-TX,Greenville,no,0TX9,,0TX9,,,
7578,0U0,small_airport,Landmark US Forest Service Airport,44.64239883,-115.5329971,6662,NA,US,US-ID,Landmark,no,0U0,,0U0,,,
7579,0U1,small_airport,Warm Springs Creek Airport,44.14210129,-115.314003,4831,NA,US,US-ID,Lowman,no,0U1,,0U1,,,
7580,0U2,small_airport,Copper Basin Airport,43.80179977,-113.8310013,7920,NA,US,US-ID,Mackay,no,0U2,,0U2,,,
7581,0U3,small_airport,Mahoney Creek US Forest Service Airport,44.74459839,-114.9209976,4618,NA,US,US-ID,Mahoney Creek,no,0U3,,0U3,,,
7582,0U7,small_airport,Hollow Top Airport,43.32490158,-113.5879974,5359,NA,US,US-ID,Martin,no,0U7,,0U7,,,
7583,0U8,small_airport,May Airport,44.61019897,-113.8960037,5324,NA,US,US-ID,May,no,0U8,,0U8,,,
7584,0U9,small_airport,Lee Williams Memorial Airport,44.46160126,-116.7580032,2617,NA,US,US-ID,Midvale,no,0U9,,0U9,,,
7585,0VA0,heliport,Mostly Harmless Heliport,37.9654007,-77.77749634,330,NA,US,US-VA,Bumpass,no,0VA0,,0VA0,,,
7586,0VA1,small_airport,Johnson Fox Field,37.23350143,-79.58529663,900,NA,US,US-VA,Bedford,no,0VA1,,0VA1,,,
7587,0VA2,small_airport,Riverwood Airport,37.79650116,-79.76670074,1020,NA,US,US-VA,Iron Gate,no,0VA2,,0VA2,,,
7588,0VA3,small_airport,Hunt Airport,37.69879913,-77.09529877,150,NA,US,US-VA,Manquin,no,0VA3,,0VA3,,,
7589,0VA4,small_airport,Worley Field,36.95009995,-79.87950134,1219,NA,US,US-VA,Rocky Mount,no,0VA4,,0VA4,,,
7590,0VA5,small_airport,Coffman Field,37.69414437,-77.66089439,280,NA,US,US-VA,Richmond,no,0VA5,,0VA5,,,Rockville
7591,0VA6,heliport,Mc Guire Va Medical Center Pad Heliport,37.49599838,-77.46219635,178,NA,US,US-VA,Richmond,no,0VA6,,0VA6,,,
7592,0VA7,small_airport,Flatrock Air Strip,37.52320099,-77.81939697,425,NA,US,US-VA,Richmond,no,0VA7,,0VA7,,,
7593,0VA8,small_airport,Jayarz Airport,37.28580093,-77.79119873,210,NA,US,US-VA,Mannboro,no,0VA8,,0VA8,,,
7594,0VA9,small_airport,Handy Strip,37.44739914,-76.45379639,8,NA,US,US-VA,Gloucester Court House,no,0VA9,,0VA9,,,
7595,0VI1,small_airport,Brooklyn Airport,37.68889999,-77.10140228,145,NA,US,US-VA,Manquin,no,0VI1,,0VI1,,,
7598,0WA0,heliport,Streamline Heliport,47.98289871,-122.038002,116,NA,US,US-WA,Machias,no,0WA0,,0WA0,,,
7599,0WA1,small_airport,Dwight Field,46.61709976,-122.8259964,350,NA,US,US-WA,Chehalis,no,0WA1,,0WA1,,,
7600,0WA2,small_airport,Curtis Airport,46.5904007,-123.1050034,254,NA,US,US-WA,Curtis,no,0WA2,,0WA2,,,
7601,0WA3,closed,Air Columbia Heliport,45.682599,-121.900002,149,NA,US,US-WA,Stevenson,no,,,,,,0WA3
7602,0WA4,heliport,Hansen Heliport,47.43619919,-120.2799988,1250,NA,US,US-WA,East Wenatchee,no,0WA4,,0WA4,,,
7603,0WA5,heliport,Ware Mountain Heliport,48.37929916,-122.288002,750,NA,US,US-WA,Mount Vernon,no,0WA5,,0WA5,,,
7604,0WA6,heliport,Stevens Memorial Hospital Heliport,47.80369949,-122.3339996,370,NA,US,US-WA,Edmonds,no,0WA6,,0WA6,,,
7605,0WA7,heliport,Shamrock Port Heliport,47.77690125,-117.0839996,2172,NA,US,US-WA,Newman Lake,no,0WA7,,0WA7,,,
7606,0WA8,heliport,Childrens Hospital Emergency Heliport,47.66400146,-122.2809982,125,NA,US,US-WA,Seattle,no,0WA8,,0WA8,,,
7607,0WA9,heliport,Naval Station Everett Heliport,47.9864606,-122.2242951,5,NA,US,US-WA,Everett,no,0WA9,,0WA9,,,
7608,0WI0,heliport,Aurora St Luke's Medical Center Heliport,42.98889923,-87.95149994,761,NA,US,US-WI,Milwaukee,no,0WI0,,0WI0,,,
7609,0WI1,small_airport,Mort's Landing Airport,45.50719833,-92.14189911,1255,NA,US,US-WI,Comstock,no,0WI1,,0WI1,,,
7610,0WI2,small_airport,Doering Farms Airfield,43.20140076,-88.33339691,910,NA,US,US-WI,Monches,no,0WI2,,0WI2,,,
7611,0WI3,heliport,Aurora Lakeland Medical Center Heliport,42.6617012,-88.49680328,1040,NA,US,US-WI,Elkhorn,no,0WI3,,0WI3,,,
7612,0WI4,small_airport,Snow Crest Ranch Airport,43.82939911,-89.3526001,810,NA,US,US-WI,Montello,no,0WI4,,0WI4,,,
7613,0WI5,small_airport,Crash In International Airport,42.79339981,-87.89060211,755,NA,US,US-WI,Husher,no,0WI5,,0WI5,,,
7614,0WI6,small_airport,Simandl Field/Private Airport,42.87360001,-88.15789795,805,NA,US,US-WI,Muskego,no,0WI6,,0WI6,,,
7615,0WI7,small_airport,With Wings And A Halo Airport,44.13359833,-88.4992981,760,NA,US,US-WI,Neenah,no,0WI7,,0WI7,,,
7616,0WI8,small_airport,Oconomowoc Airport,43.13890076,-88.47229767,885,NA,US,US-WI,Oconomowoc,no,0WI8,,0WI8,,,
7617,0WI9,small_airport,Mc Manus Hoonch-Na-Shee-Kaw Airport,42.9314003,-89.33869934,931,NA,US,US-WI,Oregon,no,0WI9,,0WI9,,,
7618,0WN0,small_airport,Rucilla's Roost Airport,48.13729858,-123.112999,15,NA,US,US-WA,Sequim,no,0WN0,,0WN0,,,
7619,0WN1,small_airport,Shangri-La Airport,46.75189972,-120.6019974,1500,NA,US,US-WA,Selah,no,0WN1,,0WN1,,,
45908,0WN2,small_airport,Coopers Landing,46.127778,-119.015,435,NA,US,US-WA,Kennewick,no,0WN2,,0WN2,,,
7621,0WN4,heliport,Olympia Heliport,46.9640007,-122.8919983,200,NA,US,US-WA,Olympia,no,0WN4,,0WN4,,,
7622,0WN5,small_airport,Potts Field,42.79970169,-88.04869843,815,NA,US,US-WI,North Cape,no,0WN5,,0WN5,,,
7623,0WN6,heliport,L-Z Blue Thunder Heliport,48.95339966,-122.8180008,75,NA,US,US-WA,Blaine,no,0WN6,,0WN6,,,
7624,0WN7,heliport,Enumclaw Community Hospital Heliport,47.20650101,-121.9810028,700,NA,US,US-WA,Enumclaw,no,0WN7,,0WN7,,,
7625,0WN8,heliport,Sheldon Heliport,47.25109863,-116.8519974,2129,NA,US,US-ID,Coeur D'Alene,no,0WN8,,0WN8,,,
45906,0WN9,small_airport,Wings For Christ Airport,48.430464,-119.486058,1000,NA,US,US-WA,Omak,no,0WN9,,0WN9,,,
45936,0WY0,small_airport,Freedom Air Ranch Airport,43.039722,-111.038056,5698,NA,US,US-WY,Freedom,no,0WY0,,0WY0,,,
45935,0WY1,small_airport,Dorsey Creek Ranch Airport,44.411111,-108.163333,4017,NA,US,US-WY,Basin,no,0WY1,,0WY1,,,
7626,0XA0,heliport,Parkland Hospital Nr 2 Heliport,32.811402,-96.838799,548,NA,US,US-TX,Dallas,no,,,,,,0XA0
7628,0XA2,heliport,Fort Duncan Medical Center Heliport,28.71209908,-100.4570007,884,NA,US,US-TX,Eagle Pass,no,0XA2,,0XA2,,,
7629,0XA3,heliport,Midstream Freeport Heliport,28.97170067,-95.28309631,6,NA,US,US-TX,Freeport,no,0XA3,,0XA3,,,
7630,0XA4,small_airport,Seven C's Ranch Airport,27.99690056,-98.88220215,331,NA,US,US-TX,Freer,no,0XA4,,0XA4,,,
7631,0XA5,small_airport,74 Ranch Airport,28.68490028,-98.38279724,320,NA,US,US-TX,Campbellton,no,0XA5,,0XA5,,,
7632,0XA6,heliport,Jaxon Landing Heliport,33.45000076,-101.939003,3270,NA,US,US-TX,Lubbock,no,0XA6,,0XA6,,,
7633,0XA7,small_airport,Bar 3 Ranch Airport,30.66270065,-97.62509918,744,NA,US,US-TX,Georgetown,no,0XA7,,0XA7,,,
7634,0XA8,small_airport,Ohho Airport,30.27000046,-98.10829926,1340,NA,US,US-TX,Dripping Springs,no,0XA8,,0XA8,,,
7635,0XA9,heliport,Methodist Mansfield Medical Center Heliport,32.56779861,-97.09529877,633,NA,US,US-TX,Mansfield,no,0XA9,,0XA9,,,
7636,0XS0,small_airport,Diamond H Ranch Airport,28.40029907,-99.55870056,511,NA,US,US-TX,Catarina,no,0XS0,,0XS0,,,
7637,0XS1,small_airport,Rodgers Roost Airport,29.28779984,-96.34970093,129,NA,US,US-TX,El Campo,no,0XS1,,0XS1,,,
7638,0XS2,small_airport,John Fields Ranch Airport,30.55489922,-100.5339966,2342,NA,US,US-TX,Sonora,no,0XS2,,0XS2,,,
7639,0XS3,heliport,South Texas Project Heliport,28.79220009,-96.04190063,32,NA,US,US-TX,Palacios,no,0XS3,,0XS3,,,
7640,0XS4,heliport,Eds Heliport,33.09170151,-96.68609619,602,NA,US,US-TX,Allen,no,0XS4,,0XS4,,,
7641,0XS5,heliport,Southeastern Helicopters Heliport,26.14699936,-97.17389679,5,NA,US,US-TX,South Padre Island,no,0XS5,,0XS5,,,
7642,0XS6,small_airport,Lakeside Beach Airport,30.50099945,-98.14700317,800,NA,US,US-TX,Spicewood,no,0XS6,,0XS6,,,
7643,0XS7,small_airport,Anacacho Ranch Airport,29.19190025,-100.2750015,1067,NA,US,US-TX,Spofford,no,0XS7,,0XS7,,,
7644,0XS8,small_airport,Dunbar Ranch Airport,29.0760994,-100.375,958,NA,US,US-TX,Spofford,no,0XS8,,0XS8,,,
45852,0XS9,small_airport,French Field,32.134042,-95.339583,540,NA,US,US-TX,Bullard,no,0XS9,,0XS9,,,
7645,0Y4,small_airport,Lambert Fechter Municipal Airport,43.16419983,-95.47000122,1452,NA,US,US-IA,Hartley,no,0Y4,,0Y4,,,
7646,0Y6,small_airport,Lake Mills Municipal Airport,43.41659927,-93.50849915,1260,NA,US,US-IA,Lake Mills,no,0Y6,,0Y6,,,